company_name	company_number	reg_address_post_town	reg_address_county	reg_address_country	reg_address_post_code	company_status	sic_code
"11 WORLDWIDE LTD"	10458636	LONDON	""	ENGLAND	"SW1V 1 DX"	Active	82990
"123 COLDERSHAW ROAD FREEHOLD LTD"	10354096	LONDON	""	"UNITED KINGDOM"	"SW6 7 JJ"	Active	68209
"13 MANOR PARK MANAGEMENT COMPANY LTD"	09799452	LONDON	""	"UNITED KINGDOM"	"SE13 5Q2"	Active	98000
"14 ST HELENS GARDENS MANAGEMENT COMPANY LIMITED"	06738554	LONDON	""	""	"W10 6L7"	Active	98000
"16 ELGIN CRESCENT LIMITED"	10648831	LONDON	""	""	"W8 6S"	Active	68209
"181 OLD BROMPTON ROAD RTM COMPANY LIMITED"	07475313	LONDON	""	""	"SW5 OAN"	Active	98000
"226 EARLSFIELD ROAD MANAGEMENT LIMITED"	07619582	LONDON	""	""	"SW18 3DXQ"	Active	98000
"23 ENDYMION ROAD LIMITED"	07595893	LONDON	""	""	"N4 1DY."	Active	68209
"25 MOWBRAY ROAD"	10431758	LONDON	""	ENGLAND	"WC2H 9 JQ"	Active	68320
"27 PONT STREET LIMITED"	00835058	LONDON	""	""	"SW1X OAZ"	Active	98000
"367 FPR LTD"	10015102	LONDON	""	"UNITED KINGDOM"	"W1U 3ET."	Active	68100
"3A(UK) LIMITED"	07624869	LONDON	LONDON	""	"NW1 ONH"	Active	86900
"46 BALLATER ROAD LIMITED"	07764022	LONDON	""	""	"SW 5QR"	"Active - Proposal to Strike off"	99999
"59 ST. ANNS ROAD MANAGEMENT COMPANY LIMITED"	07343199	LONDON	""	""	"E15 15Y"	Active	68320
"76 DALLING ROAD LIMITED"	06141471	LONDON	""	""	"W6 OJA"	Active	98000
"80 ELM PARK GARDENS LIMITED"	04857073	LONDON	""	""	"W14 OQH"	Active	98000
"A & SONS PROPERTIES LIMITED"	10028742	LONDON	""	ENGLAND	"E 1 1JE"	Active	68100
"A KUMAR SINGH LTD"	10473801	LONDON	""	"UNITED KINGDOM"	"WCIN 3AX"	Active	62020
"A SUTTON LIMITED"	07105603	LONDON	""	""	"NW11 OAH"	Active	70100
"A&J ENGINEERING SERVICES LTD"	07479667	LONDON	""	ENGLAND	"N17 GU"	Active	33120
"A.J.FARMER LIMITED"	00827232	LONDON	""	""	"WIG 8DH"	Active	47190
"A2 GROUP DEVELOPMENT & SERVICE LTD"	10790496	LONDON	""	"UNITED KINGDOM"	"WCIN 3AX"	Active	62020
"ABDUL R LTD"	10494160	LONDON	""	"UNITED KINGDOM"	"WCIN 3AX"	Active	62020
"ADR NEWCASTLE LIMITED"	10263009	LONDON	""	"UNITED KINGDOM"	"SWIV 3BX"	Active	69101
"ADR NORTH LIMITED"	10266252	LONDON	""	"UNITED KINGDOM"	"SWIV 3BX"	Active	69101
"ADVANCED GLOBAL IDEAS UK LIMITED"	08235871	LONDON	""	""	"EC1V   4PY"	Active	82990
"AFFCO EUROPE LIMITED"	04834758	LONDON	""	""	"ECIR 0BD"	Active	46320
"AFRICAN WOMEN IN BUSINESS LIMITED"	10729897	LONDON	""	"UNITED KINGDOM"	"W1H 6H"	Active	94990
"AGARWAL LTD"	10472258	LONDON	""	"UNITED KINGDOM"	"WCIN 3AX"	Active	62020
"AGRO PRODUCE UK LIMITED"	07773206	LONDON	""	""	"E16 IHN"	Active	01420
"ALBEMARLE EDUCATION LTD."	03387138	LONDON	""	""	"NW11 *ED"	Active	85310
"ALCHEMIST (FRANCE) LIMITED"	10791203	LONDON	""	"UNITED KINGDOM"	"EC3 V 3QQ"	Active	77400
"ALEXANDER THE GREAT CENTER OF LEARNING LIMITED"	09366682	LONDON	""	"UNITED KINGDOM"	"E1 3AA UK"	"Active - Proposal to Strike off"	85310
"ALEXANDERS OPTICIANS LTD"	08409488	LONDON	""	""	"N2 OPE"	Active	47782
"ALIGN COURIERS LTD"	10331023	LONDON	""	"UNITED KINGDOM"	"E13 DZ"	Active	96090
"ALLSORTSDIGITAL LIMITED"	10594055	LONDON	""	ENGLAND	W1B	Active	82990
"ALMARWAH MEDIC LTD"	07319755	LONDON	""	""	"NW1 9 DR"	"Active - Proposal to Strike off"	86210
"ALPHAHILL PROPERTIES LIMITED"	10681071	LONDON	""	"UNITED KINGDOM"	"NW11 OLR"	Active	68100
"AM VINTAGE RETAIL UK LIMITED"	10578118	LONDON	""	ENGLAND	"WIF 7LD"	Active	82990
"AMAR RAY LTD"	10492209	LONDON	""	"UNITED KINGDOM"	"WCIN 3AX"	Active	62020
"AMARYAN LIMITED"	10041287	LONDON	""	ENGLAND	"N14 SHE"	Active	68209
"AMINIL LTD"	10472814	LONDON	""	"UNITED KINGDOM"	"WCIN 3AX"	Active	62020
"AMIT DAS LTD"	10492103	LONDON	""	"UNITED KINGDOM"	"WCIN 3AX"	Active	62020
"AMIT PODDAR LTD"	10492140	LONDON	""	"UNITED KINGDOM"	"WCIN 3AX"	Active	62020
"ANCIL LTD"	10815785	LONDON	""	"UNITED KINGDOM"	"SE22 OJS"	Active	96090
"ANDOVER PROPERTIES LIMITED"	02885144	LONDON	""	""	"WIH 2EJ"	Active	41100
"ANGELA EAGLE CAMPAIGN LIMITED"	10272285	LONDON	""	ENGLAND	"WC2 N4JF"	Active	82990
"ANIL KUMAR SHAW LTD"	10492075	LONDON	""	"UNITED KINGDOM"	"WCIN 3AX"	Active	62020
"APPLE PROPERTIES US LTD"	10764120	LONDON	""	"UNITED KINGDOM"	NW1	Active	68209
"APRIL DESIGN LIMITED"	06295630	LONDON	""	""	"N8 OBJ"	Active	62020
"ARCHONET LIMITED"	05358710	LONDON	""	""	"SE 19 3RW"	Active	62090
"ARIANE CHAPELLE CONSULTING LTD"	07804875	LONDON	""	""	"SW5 OJJ"	Active	70229
"ARKCH LTD"	09373481	LONDON	""	""	"HA 3RJ"	Active	99999
"ARTSABROAD LIMITED"	07899968	LONDON	""	""	"SW7 IEF"	Active	79120
"ASHISH SINGH LTD"	10476573	LONDON	""	"UNITED KINGDOM"	"WCIN 3AX"	Active	62020
"ASSETS MANAGEMENT UK LIMITED"	09618962	LONDON	""	"UNITED KINGDOM"	"WC1 N3AX"	"Active - Proposal to Strike off"	64306
"ASTONI CAPITAL MANAGEMENT LIMITED"	10388051	LONDON	""	"UNITED KINGDOM"	EC2Y	Active	64209
"ATRATO PARTNERS LIMITED"	10533101	LONDON	""	"UNITED KINGDOM"	"WIU 1BZ"	Active	99999
"AURA SUPER PRIME LTD"	10117825	LONDON	""	"UNITED KINGDOM"	"SW10 OXF"	Active	96090
"AVALINE SCHOOL LIMITED"	10531512	LONDON	""	ENGLAND	"W5 3HJ."	Active	85590
"AVANA ESTATES LIMITED"	07151152	LONDON	""	""	"ECIN 8DL"	Active	68209
"AWW SERVICE & TRADE LIMITED"	06368441	LONDON	""	ENGLAND	"WIG (QG"	Active	99999
"AYLESFORD INTERNATIONAL LIMITED"	05794697	LONDON	""	""	"SW10 OLH"	Active	74990
"B CHOICE LIMITED"	06272242	LONDON	""	""	"EC4Y OHA"	Active	64209
"B R & K SERVICES LIMITED"	09835440	LONDON	""	"UNITED KINGDOM"	"SE1 8 7RL"	Active	87900
"B YADAV LTD"	10476423	LONDON	""	"UNITED KINGDOM"	"WCIN 3AX"	Active	62020
"B-PRACTICAL LTD"	07987035	LONDON	""	""	"W37 BS"	Active	86101
"B.HOSSAIN LTD"	10472625	LONDON	""	"UNITED KINGDOM"	"WCIN 3AX"	Active	62020
"B.W.T. INT LIMITED"	09920145	LONDON	""	"UNITED KINGDOM"	"WC1 N3AX"	Active	99999
"BABITA LTD"	10472705	LONDON	""	"UNITED KINGDOM"	"WCIN 3AX"	Active	62020
"BABITA SINGH LTD"	10476366	LONDON	""	"UNITED KINGDOM"	"WCIN 3AX"	Active	62020
"BABY UR BLESSED MATS LTD"	10600253	LONDON	""	"UNITED KINGDOM"	"N7 7 BP"	Active	96090
"BAILEY MONTAGU LTD."	08201990	LONDON	""	""	"WIJ 6BD"	Active	78109
"BAKEWELL BROTHERS ACCOUNTANTS LTD"	10851366	LONDON	""	"UNITED KINGDOM"	"E11 4 EF"	Active	96090
"BANIA LTD"	10473256	LONDON	""	"UNITED KINGDOM"	"WCIN 3AX"	Active	62020
"BCL ACQUISITIONS LTD"	10888523	LONDON	""	ENGLAND	"SE 379E"	Active	82990
"BEACH POINT CAPITAL UK LTD"	07107431	LONDON	""	""	"W1J 8 AJ"	Active	82990
"BEECHBROOK UK SME CREDIT I CO-INVESTMENT LTD"	09867189	LONDON	LONDON	""	"WIU 7NA"	Active	74909
"BEEKASH PAYMENT SYSTEM LIMITED"	09420856	LONDON	""	ENGLAND	"EC1 V2NX"	Active	62012
"BESPOKE S4U ASSESSORS LTD"	09831115	LONDON	BARNET	ENGLAND	"N12 OEH"	"Active - Proposal to Strike off"	85600
"BETHESDA CHURCH MINISTRIES"	10520341	LONDON	""	"UNITED KINGDOM"	"SW9 QDJ"	Active	94910
"BIG HOLDING GROUP LIMITED"	10740414	LONDON	""	"UNITED KINGDOM"	"WIJ 8DZ"	Active	82990
"BINLEY DEVELOPMENTS LTD"	10782377	LONDON	""	"UNITED KINGDOM"	1AE	Active	41100
"BISHOP & DAFE LTD"	09193310	LONDON	""	""	"W4 54PY"	"Active - Proposal to Strike off"	90030
"BITBYTE LIMITED"	10261153	LONDON	""	"UNITED KINGDOM"	"SE3 03U"	Active	62020
"BITCONSULT INVESTMENT LTD"	10795170	LONDON	AVON	ENGLAND	"EC1 V4PW"	Active	70100
"BITIMART LTD"	10395241	LONDON	""	ENGLAND	EC1	Active	82990
"BLOCQ LIMITED"	09140078	LONDON	LONDON	""	"NI 4PH"	Active	62020
"BLUE DROPS ATLANTIC LIMITED"	10467925	LONDON	""	"UNITED KINGDOM"	"SE18 1 LQ"	Active	96090
"BLUE HEAVEN LIMITED"	10717620	LONDON	""	"UNITED KINGDOM"	"SE11 SQU"	Active	56103
"BLUE SKY CLEANER LTD"	07557392	LONDON	""	""	SW6	Active	96010
"BONDSWAY LIMITED"	07747446	LONDON	""	""	"EW 1YW"	Liquidation	68209
"BORN TO PLAY (B2P) LTD"	09763259	LONDON	""	ENGLAND	"NW 3NE"	"Active - Proposal to Strike off"	82990
"BORR DRILLING MANAGEMENT (UK) LIMITED"	10758288	LONDON	""	"UNITED KINGDOM"	"W1J 6Q2"	Active	09100
"BRANDMODA FASHIONS LIMITED"	09709845	LONDON	""	"UNITED KINGDOM"	"E7 ONR"	Active	13923
"BRECKNOCK PROPERTIES LTD"	10766756	LONDON	""	"UNITED KINGDOM"	"N3 IDH"	Active	41100
"BRETHREN IN SUCCESS SERVICES LTD"	10544463	LONDON	""	ENGLAND	"SE22 OPN"	Active	82990
"BRITISH ASSOCIATION FOR TISSUE BANKING"	03852423	LONDON	""	""	"WC11N 2JU"	Active	94120
"BUN & BAR LIMITED"	09254109	LONDON	""	""	"N8 ORL"	Active	96090
"BUNKER THEATRE PRODUCTIONS CIC"	10330447	LONDON	""	""	"SE1 16U"	Active	90010
"BURGERS AT WORK LTD"	10592068	LONDON	""	"UNITED KINGDOM"	ROYAUME-UNI	Active	64209
"BYWAYS HOLDINGS LIMITED"	05109756	LONDON	""	""	"W1F TLD"	Active	82990
"BYWAYS LIMITED"	02238472	LONDON	""	""	"W1F TLD"	Active	17230
"C.A.P MEDICAL ASSOCIATES LIMITED"	08945637	LONDON	""	ENGLAND	E3	Active	86101
"CAFE DI ROSSO LIMITED"	06915153	LONDON	""	""	"NW11 OBA"	Active	82990
"CAMBRIAN WASTE 2 ENERGY LTD"	07933803	LONDON	""	""	"W1CA 1LT"	Active	38210
"CAREFUL SYSTEMS LIMITED"	10176186	LONDON	""	"UNITED KINGDOM"	"EC4R OEH"	Active	62012
"CATERANDMERGER.COM LIMITED"	10097606	LONDON	""	"UNITED KINGDOM"	"N 17 9 LJ"	Active	74990
"CAYAU ET ASSOCIES LTD"	10491033	LONDON	""	ENGLAND	"N1 93Y"	Active	68310
"CEDARSREACH LTD"	10390278	LONDON	""	"UNITED KINGDOM"	"SW13. 9NP"	Active	74909
"CELBUX INTERNATIONAL HOLDINGS LIMITED"	10033446	LONDON	""	"UNITED KINGDOM"	"EC4V 4BG,"	Active	77400
"CENAFY LIMITED"	09292953	LONDON	""	ENGLAND	"N17G U"	Active	62012
"CETC LTD"	07959870	LONDON	""	""	UB8	"Active - Proposal to Strike off"	82990
"CFC CAPITAL LIMITED"	07982769	LONDON	ENGLAND	""	"EC3V OAA"	Active	64205
"CHAMRIA LTD"	10472262	LONDON	""	"UNITED KINGDOM"	"WCIN 3AX"	Active	62020
"CHANS XING LTD"	09309490	LONDON	""	""	"WID 6JG"	Active	56103
"CHARISMA ACADEMY LTD"	08499817	LONDON	LONDON	ENGLAND	"WC1 A 2SE"	"Active - Proposal to Strike off"	85590
"CHECK THE DEAL LTD"	10476695	LONDON	""	"UNITED KINGDOM"	"WCIN 3AX"	Active	62020
"CHELSEA SECURITY LTD"	10930662	LONDON	""	ENGLAND	"SW10 OPQ"	Active	80100
"CHRISTIAN SANDER & TEAM LTD"	09865895	LONDON	""	ENGLAND	"E18 2W"	Active	63120
"CHURCH RISE PROPERTY OWNERS LTD"	08302157	LONDON	""	""	"N1 7GIU"	Active	94990
"CINDY BURHAN LIMITED"	10642663	LONDON	""	ENGLAND	"SE27 ONU"	Active	62020
"CITI (UK) PENSION TRUSTEE LIMITED"	04060697	LONDON	""	""	"WIU 7EU"	Liquidation	74990
"CITY YEAR LONDON TRADING LIMITED"	07428238	LONDON	""	""	"N19 PP"	Active	85600
"CITYBOX ADVERTISING LIMITED"	04975399	LONDON	""	""	"WN 1RH"	Active	73110
"CLIQUISH 22 LIMITED"	10131310	LONDON	""	ENGLAND	"W1H2 HD"	Active	80100
"CLIVE JACOBS PUBLISHING LIMITED"	06928818	LONDON	""	"UNITED KINGDOM"	"SW1W OAU"	Active	58190
"CLOUD SPACE (UK) LIMITED"	08754333	LONDON	""	""	"E1W 3 SS"	Active	63110
"COFFEE BLUSH LIMITED"	09330113	LONDON	""	""	"N9 OPD"	Active	96090
"COLMAN-UNDERWOOD CONSULTING LIMITED"	09653374	LONDON	""	"UNITED KINGDOM"	"N4 3 FD"	Active	62020
"COMMERCIAL BTF LTD"	06028330	LONDON	""	""	"WC1 B3BQ"	Active	82990
"COMSGLOBE INVESTMENTS LTD"	06395662	LONDON	""	""	"NF 0AR"	Active	99000
"CONSERVATIVE WAY FORWARD LIMITED"	09644449	LONDON	""	""	"SW1H OHW"	Active	94990
"COUNTRYWIDE PLANT SOLUTIONS LIMITED"	09547265	LONDON	""	"UNITED KINGDOM"	"WIH 7QD"	Active	43999
"CREATEMASTER LIMITED"	04427732	LONDON	""	""	"WIU 6EQ"	Active	63990
"CREATIONS TJ LTD"	09960575	LONDON	""	ENGLAND	"N17 OTR"	Active	85590
"CRYOCEN LTD"	10686517	LONDON	""	ENGLAND	"HA2 THH"	Active	82990
"CUBA JEWELLERS LTD"	10787056	LONDON	""	"UNITED KINGDOM"	"TW3 2 PS"	Active	96090
"D CARE LTD"	10417170	LONDON	SURREY	ENGLAND	"CR35 NU"	Active	96090
"D'ORO CAFE LTD"	10822286	LONDON	""	ENGLAND	"N18 07Y"	Active	82990
"D. DONOVAN & SONS (CARPET SERVICES) LIMITED"	01270624	LONDON	""	""	"W14 OHD"	Active	43330
"D.M.R.E. LTD"	08154946	LONDON	""	"UNITED KINGDOM"	"WC1 N3AX"	Active	96090
"D.R.S BULDING SERVICES LIMITED"	10269196	LONDON	""	"UNITED KINGDOM"	"NW6 5 NP"	Active	41201
"DANIA DRYCLEANING & LAUNDRY LTD"	08636301	LONDON	""	""	"W14 OLH"	Active	96010
"DAS ASHIS LTD"	10472057	LONDON	""	"UNITED KINGDOM"	"WCIN 3AX"	Active	62020
"DCM GROUP GLOBAL LIMITED"	10849131	LONDON	""	ENGLAND	"SW1 W0DH"	Active	64999
"DCS COFFEE & SPICES LIMITED"	10429535	LONDON	""	"UNITED KINGDOM"	"SE1 1 EN"	Active	46370
"DEABASHISH GHOSH LTD"	10492005	LONDON	""	"UNITED KINGDOM"	"WCIN 3AX"	Active	62020
"DEMMYKITTIES CHILDCARE SERVICES LIMITED"	07301892	LONDON	""	""	"SE28 82U"	Active	85100
"DERIVE CLOUD LTD"	08530029	LONDON	""	ENGLAND	"W140 DB"	Active	62020
"DESIGN BY NOOK LTD"	07879916	LONDON	MIDDLESEX	""	"HA2 OHY"	Active	74100
"DESIGNER LTD"	06668989	LONDON	""	""	"WI H 1DP"	Active	70221
"DEX3 LTD"	08622485	LONDON	""	ENGLAND	"N1 7 GU"	Active	96090
"DFX GLOBAL LIMITED"	09911753	LONDON	""	ENGLAND	"SW1 W0DH"	Active	64999
"DHERMENDRA PASWAN LTD"	10491910	LONDON	""	"UNITED KINGDOM"	"WCIN 3AX"	Active	62020
"DIGITAL APPLICATIONS INTERNATIONAL LIMITED"	01008089	LONDON	""	""	"WCIR 4EQ"	Active	62020
"DIRECT FURNITURE FOR U LTD"	06476700	LONDON	""	""	"EC1Y OUJ"	Liquidation	46499
"DK HEALTH AND FITNESS LTD"	10282965	LONDON	""	"UNITED KINGDOM"	"SWIV 3QB"	Active	74990
"DMN PROPERTY SOLUTIONS LTD"	08936970	LONDON	""	""	"NW2 5 JP"	Active	68209
"DO.KLA. LTD"	09619243	LONDON	""	"UNITED KINGDOM"	"WC1 N3AX"	Active	99999
"DRAGONFLY CAFE LIMITED"	09862693	LONDON	""	"UNITED KINGDOM"	"ECIV 0BN"	Active	56103
"DRHF LTD"	08851396	LONDON	""	""	"W2 WPT"	Active	56103
"DULAL LTD"	10472139	LONDON	""	"UNITED KINGDOM"	"WCIN 3AX"	Active	62020
"E-BEKEE SERVICES LTD"	07532115	LONDON	""	""	"E10 5JY2"	Active	80200
"E. MAINTANCE LIMITED"	10334470	LONDON	ENGLAND	ENGLAND	CR7	Active	33140
"EAST LONDON REGENERATION (WALLIS NORTH) LTD"	08996050	LONDON	""	""	"NW11 OPU"	Active	41100
"EASY TO MAKE LTD"	10753496	LONDON	""	ENGLAND	"SW10 OUJ"	Active	82990
"EASYSTART SERVICES LIMITED"	09545454	LONDON	""	"UNITED KINGDOM"	"E13 OBJ"	Active	82990
"EBAA LTD"	08058223	LONDON	""	""	"NW1 9 DR"	"Active - Proposal to Strike off"	86900
"ECLIPSE INVOICING UK LTD"	07233371	LONDON	""	""	"WC1 H9L"	Liquidation	82990
"ECOSECURITIES LIMITED"	04141986	LONDON	""	""	"W1S 1D5"	Active	74901
"ELAINE PROPERTY LTD"	07670212	LONDON	""	""	"EC1V 4P"	Active	68100
"ELCOIN LTD"	10755607	LONDON	""	ENGLAND	"SW1 W0DH"	Active	64999
"ELDER DEMPSTER AND COMPANY LIMITED"	10857363	LONDON	""	ENGLAND	"N17 GU"	Active	82990
"ELEVATE PLATFORM LIMITED"	07252700	LONDON	""	ENGLAND	"EC4Y ODT"	Active	82990
"ELO-HEIGHTS LIMITED"	09183903	LONDON	WALTHAMFOREST	""	"E10- 6PG"	Active	46190
"EMEA SERVICES LIMITED"	06413741	LONDON	""	""	"W6 ODU"	Active	63990
"EMPOWER 54 PROJECT LIMITED"	10774463	LONDON	""	"UNITED KINGDOM"	"W1H 6H"	Active	86900
"ENTOURAGE BD LTD"	08157506	LONDON	""	ENGLAND	"EC1V 2T"	Active	82990
"ENVIKLEEN  UK LTD"	10612085	LONDON	""	ENGLAND	"SW 6 2EX"	Active	82990
"EPC RESOURCES LTD"	07611933	LONDON	""	ENGLAND	"W12 9 RT"	Active	82990
"EPCENGINEER.COM LTD"	07060684	LONDON	""	ENGLAND	"W12 9 RT"	Active	82990
"EPIMONOS CONSULTING LIMITED"	09643287	LONDON	""	ENGLAND	"513 SIDC"	Active	62020
"ETH TRADING LIMITED"	10042381	LONDON	""	"UNITED KINGDOM"	"SW20 OUE"	Active	62090
"EUROPEAN VEDIC SPIRITUAL AND HOLISTIC STUDIES LTD"	10770837	LONDON	""	ENGLAND	"WC1N AX"	Active	82990
"EVA SYNTHESIS LIMITED"	10392566	LONDON	""	"UNITED KINGDOM"	"WC1B SHJ"	Active	98200
"EXPERT INSIGHT LIMITED"	10294629	LONDON	""	""	"N12 XD"	Active	74909
"EXTRASPACE (INT) LIMITED"	10397472	LONDON	""	"UNITED KINGDOM"	"IG11 OPP"	Active	96090
"FA DIY LTD"	10911583	LONDON	""	ENGLAND	"E2 QZ"	Active	47520
"FAITH REGEN FOUNDATION LTD"	04298548	LONDON	""	""	"N11 2 UT"	Active	88990
"FALAN UK 1 LIMITED"	08776062	LONDON	""	""	"EC4R OHH"	Active	74990
"FALAN UK 2 LIMITED"	08776125	LONDON	""	""	"EC4R OHH"	Active	74990
"FARDA GLOBAL LIMITED"	08940936	LONDON	""	""	"W2 WPT"	Active	74909
"FERN & NOBLE LTD"	10778896	LONDON	""	"UNITED KINGDOM"	"E7 OBB"	Active	96090
"FINSBURY PARK RD FREEHOLD LTD"	10339468	LONDON	""	ENGLAND	"NR 2JZ"	Active	82990
"FLAOLA LIMITED"	09269628	LONDON	""	"UNITED KINGDOM"	"WC1 N3AX"	Active	82990
"FOOD DEVELOPMENT CORPORATION LTD"	07009732	LONDON	""	""	"W1G 82D"	Active	70221
"FOSTER ESTATES LIMITED"	09195823	LONDON	""	"UNITED KINGDOM"	"W1W 76PH"	"Active - Proposal to Strike off"	74909
"FREE TRADE WHARF MANAGEMENT COMPANY LIMITED"	02992786	LONDON	""	""	"SW19 QA"	Active	68209
"FRYER GROUP LTD"	10920191	LONDON	""	ENGLAND	"E16 LW"	Active	64303
"009 DESIGN AND BUILD LTD"	10397003	LONDON	""	"UNITED KINGDOM"	""	Active	41100
"1 ELDER AVENUE LIMITED"	02941544	LONDON	N8	""	""	Active	98000
"11 GUNTER GROVE LTD"	06020979	LONDON	SW10	""	""	Active	68209
"117 LONGLEY ROAD MANAGEMENT COMPANY LIMITED"	02428341	LONDON	"SW17  9LD"	""	""	Active	98000
"118 BURNT ASH HILL RESIDENTS COMPANY LIMITED"	02685824	LONDON	"SE12 OHT"	""	""	Active	98000
"12 CASTELLAIN ROAD MANAGEMENT COMPANY LIMITED"	02217294	LONDON	"W9 1EZ."	""	""	Active	98000
"12 LAMBERT ROAD LIMITED"	03326294	LONDON	SW2	""	""	Active	98000
"13 BLOOMFIELD ROAD MANAGEMENT COMPANY LIMITED"	02742694	LONDON	N6	""	""	Active	98000
"142/144 RODING ROAD LIMITED"	03314794	LONDON	""	""	""	Active	55900
"149 QUEENSTOWN ROAD MANAGEMENT COMPANY LIMITED"	02973825	LONDON	SW8	""	""	Active	98000
"182 WEST HILL COMMONHOLD LIMITED"	05857969	LONDON	LONDON	"UNITED KINGDOM"	""	Active	68320
"19 HORNSEY RISE GARDENS RTM COMPANY LTD"	09713974	LONDON	""	"UNITED KINGDOM"	""	Active	98000
"19 ST LUKE'S ROAD NORTH KENSINGTON LIMITED"	03439542	LONDON	""	""	""	Active	98000
"192 PAGE GREEN TERRACE TOTTENHAM LONDON N.15 LIMITED"	01946940	LONDON	N15	""	""	Active	98000
"199 VICTORIA RISE MANAGEMENT LIMITED"	02147898	LONDON	" SW4 OPF"	""	""	Active	98000
"2 ABERDEEN ROAD (MANAGEMENT) COMPANY LIMITED"	03208307	LONDON	N5	""	""	Active	98000
"2 DENMAN STREET MANAGEMENT LIMITED"	04125781	LONDON	W1	""	""	Active	98000
"2-14 REGENT STREET (CLIFTON) LIMITED"	05191057	LONDON	""	""	""	Active	68320
"21/21A THIRSK ROAD MANAGEMENT COMPANY LIMITED"	03618852	LONDON	""	""	""	Active	74990
"2295 LIMITED"	10622894	LONDON	""	"UNITED KINGDOM"	""	Active	53202
"236-238 OLD KENT ROAD RTM COMPANY LTD"	09198341	LONDON	""	ENGLAND	""	Active	98000
"25 QUEENS GATE SW7 MANAGEMENT LIMITED"	03553689	LONDON	""	""	""	Active	98000
"284 LEAHURST ROAD LIMITED"	04291543	LONDON	""	""	""	Active	68320
"29 QUEENS AVENUE LIMITED"	05767403	LONDON	""	""	""	Active	98000
"31 LEWIN ROAD MANAGEMENT COMPANY LIMITED"	06366864	LONDON	""	""	""	Active	98000
"33 HOUSE LIMITED"	10461326	LONDON	""	"UNITED KINGDOM"	""	Active	74909
"333A UPPER RICHMOND ROAD MANAGEMENT LIMITED"	07958909	LONDON	""	"UNITED KINGDOM"	""	Active	98000
"37 JOSEPHINE AVENUE MANAGEMENT COMPANY LIMITED"	02781753	LONDON	""	""	""	Active	74990
"39 CANONBURY PARK NORTH LIMITED"	01153530	LONDON	""	""	""	Active	98000
"4 KING EDWARD'S ROAD RTM COMPANY LIMITED"	08551643	LONDON	""	""	""	Active	98000
"45 GREAT PERCY STREET FREEHOLD LIMITED"	07939581	LONDON	""	""	""	Active	68209
"48 CHEPSTOW ROAD PROPERTY MANAGEMENT LIMITED"	03263892	LONDON	""	""	""	Active	68209
"5 THORNTON AVENUE LIMITED"	05206788	LONDON	""	""	""	Active	98000
"53 WARWICK GARDENS LIMITED"	10779330	LONDON	""	"UNITED KINGDOM"	""	Active	98000
"56 DUKES AVENUE LIMITED"	03223577	LONDON	N10	""	""	Active	98000
"57 RIDGE ROAD MANAGEMENT COMPANY LIMITED"	02408823	LONDON	N8	""	""	Active	98000
"5KBW PROCURECO LIMITED"	07818039	LONDON	""	""	""	Active	84230
"6 TREMADOC ROAD MANAGEMENT COMPANY LIMITED"	04108915	LONDON	""	""	""	Active	68209
"62 SH LIMITED"	10174661	LONDON	""	"GREAT BRITAIN"	""	Active	98000
"66 CHESTNUT ROAD MANAGEMENT COMPANY LIMITED"	05055495	LONDON	""	""	""	Active	68209
"67 RANDOLPH AVENUE LIMITED"	02534781	LONDON	W9	""	""	Active	98000
"74 REDCLIFFE GARDENS RESIDENTS' ASSOCIATION LIMITED"	01181402	LONDON	""	"UNITED KINGDOM"	""	Active	98000
"75 INVERINE ROAD MANAGEMENT COMPANY LIMITED"	05874350	LONDON	"SE7  7NJ"	""	""	Active	98000
"76 GLOUCESTER TERRACE W2 LIMITED"	04219557	LONDON	""	ENGLAND	""	Active	98000
"786 SERVICES LIMITED"	04646982	LONDON	""	"UNITED KINGDOM"	""	Active	80100
"82 STAPLETON HALL ROAD FREEHOLD LIMITED"	07189127	LONDON	N44QA	""	""	Active	55900
"857 GARRATT LANE MANAGEMENT LIMITED"	01946480	LONDON	"SW17 OLX"	""	""	Active	98100
"89 SHOOTERS HILL ROAD LIMITED"	02642622	LONDON	SE3	""	""	Active	98000
"968 ZINC LIMITED"	05882398	LONDON	""	ENGLAND	""	Active	82110
"A & B GROCERY LTD"	07880382	LONDON	""	ENGLAND	""	Active	47290
"00065130 LIMITED"	00065130	LONDON	""	""	"W1W 6DW"	Active	7499
"00087690 LIMITED"	00087690	LONDON	""	""	"EC4Y 8BB"	Active	5225
"00088438 LIMITED"	00088438	LONDON	""	""	"NW3 1QD"	Active	7499
"00104206 INVALID ENDING"	00104206	LONDON	""	""	"EC4A 3TR"	Liquidation	5212
"00122352 LIMITED"	00122352	LONDON	""	""	"SE1 7EU"	Liquidation	7499
"00128058 LIMITED"	00128058	LONDON	""	""	"EC4A 4AB"	Liquidation	7415
"00138452 LIMITED"	00138452	LONDON	""	""	"W1W 8AG"	Liquidation	7499
"00152305 LIMITED"	00152305	LONDON	""	""	"SE1 2AF"	Liquidation	7415
"00158345 LIMITED"	00158345	LONDON	""	""	"SW1V 1LQ"	Active	7499
"00253775 LTD"	00253775	LONDON	""	""	"EC4A 3TR"	Active	3614
"00333593 LIMITED"	00333593	LONDON	""	""	"E1W 1DD"	Liquidation	7499
"00339806 LIMITED"	00339806	LONDON	""	""	"EC4A 4HT"	Active	4521
"00368132 LIMITED"	00368132	LONDON	""	""	"EC4A 4AB"	Liquidation	7499
"00373291 LIMITED"	00373291	LONDON	""	""	"E1W 1DD"	Liquidation	7499
"00409775 LIMITED"	00409775	LONDON	""	""	"EC4A 3TR"	Liquidation	5143
"00630255 LIMITED"	00630255	LONDON	""	""	"EC2A 4SS"	Liquidation	7415
"00728334 LIMITED"	00728334	LONDON	""	""	"EC4Y 8EH"	Active	7499
"00799154 LIMITED"	00799154	LONDON	""	""	"EC4Y 8BB"	Active	7499
"00809059 LIMITED"	00809059	LONDON	""	""	"SW1H 9BU"	Active	2924
"00864505 LIMITED"	00864505	LONDON	""	""	"EC4M 7BA"	Active	3162
"00914748 LIMITED"	00914748	LONDON	""	""	"EC4A 3AD"	Active	3663
"01194903 LIMITED"	01194903	LONDON	""	""	"EC4A 4HT"	Active	7415
"01198171 LIMITED"	01198171	LONDON	""	""	"SW1V 1LQ"	Active	7499
"01234922 LIMITED"	01234922	LONDON	""	""	"NW7 3SA"	Liquidation	5134
"01273188 LIMITED"	01273188	LONDON	""	""	"E1W 1DD"	Liquidation	5190
"01439213 LIMITED"	01439213	LONDON	""	""	"SE1 9SG"	Liquidation	2851
"01737937 LIMITED"	01737937	LONDON	""	"UNITED KINGDOM"	"SW1V 1DW"	Active	9999
"01890742 LIMITED"	01890742	LONDON	""	""	"W1A 3AS"	Active	3410
"01934865 LIMITED"	01934865	LONDON	""	""	"E14 4HD"	Liquidation	7420
"020PROPERTYSERVICES LIMITED"	06269033	LONDON	""	""	"NW9 8EH"	Liquidation	4521
"02186684 LIMITED"	02186684	LONDON	""	""	"EC4A 3TR"	Liquidation	5010
"02516074 LIMITED"	02516074	LONDON	""	""	"EC4A 4HT"	Active	1824
"02761097 LIMITED"	02761097	LONDON	""	""	"W1S 4ND"	Active	9305
"02993086 LIMITED"	02993086	LONDON	""	""	"EC4M 7RB"	Active	2121
"03261558 LIMITED"	03261558	LONDON	""	""	"SW7 2JN"	Active	7020
03405697	03405697	LONDON	""	""	"EC2P 2YU"	Liquidation	8531
"03636989 LIMITED"	03636989	LONDON	""	""	"WC1H 9LG"	Liquidation	4521
"03856669 LIMITED"	03856669	LONDON	""	""	"WC1H 9LG"	Liquidation	5261
"03879191 LTD"	03879191	LONDON	""	""	"WC1H 9LG"	Liquidation	5540
"04050566 LTD"	04050566	LONDON	""	""	"WC1H 9LG"	Liquidation	7011
"04068016 PLC"	04068016	LONDON	""	""	"SE1 2AF"	"In Administration/Administrative Receiver"	9305
"04194515 LIMITED"	04194515	LONDON	""	""	"E14 9RD"	Liquidation	7414
"04196841 LIMITED"	04196841	LONDON	""	""	"EC2P 2YU"	Liquidation	5147
"04257980 LIMITED"	04257980	LONDON	""	""	"WC1H 9LT"	Liquidation	5190
"04495554 LIMITED"	04495554	LONDON	""	""	"WC1H 9LG"	Liquidation	5184
"05025054 LIMITED"	05025054	LONDON	""	""	"N13 5PA"	Active	7487
"05179470 LIMITED"	05179470	LONDON	""	""	"EC4A 4AB"	Liquidation	7487
"05236855 LTD"	05236855	LONDON	""	""	"WC1H 9LG"	Liquidation	7487
"05245559 LIMITED"	05245559	LONDON	""	""	"WC1H 9LG"	Liquidation	7487
"05448249 LIMITED"	05448249	LONDON	""	""	"W1A 2AW"	Active	7487
"! LTD"	08209948	LEEDS	YORKSHIRE	""	"LS10 2RU"	Active	99999
"!NSPIRED LTD"	SC421617	ABERDEEN	""	"UNITED KINGDOM"	"AB11 7SY"	Active	70229
"!NVERTD DESIGNS LIMITED"	09152972	SILSOE	BEDFORDSHIRE	""	"MK45 4EW"	Active	58190
"!OBAC UK LIMITED"	07687209	"STANSTED AIRPORT"	""	""	"CM24 1SJ"	Active	70229
"!YOZO FASS LIMITED"	02714021	BROCKLEY	""	""	"SE4 1NQ"	Active	90010
"$ LTD"	08209885	LEEDS	YORKSHIRE	""	"LS10 2RU"	Active	99999
"$$ DEALS $$ LIMITED"	08784088	FINCHLEY	LONDON	""	"N12 0DR"	Active	47910
"$10 CHIMP LIMITED"	09646807	SUDBURY	""	ENGLAND	"CO10 0FS"	Active	70210
"$AVE LTD"	09841468	LEEDS	""	"UNITED KINGDOM"	"LS10 2RU"	Active	99999
"& ALCHEMY MARKETING COMMUNICATIONS LTD"	08945953	BOURNEMOUTH	DORSET	""	"BH2 5QJ"	Active	70229
"& AVENUE PROPERTY MANAGEMENT LTD"	10085804	TEIGNMOUTH	DEVON	"UNITED KINGDOM"	"TQ14 9ER"	Active	43390
"& BLANC LIMITED"	09619569	BEESTON	NOTTINGHAM	""	"NG9 1AB"	Active	47710
"& BUTTONS LIMITED"	06510349	CREWE	""	ENGLAND	"CW3 9GB"	Active	47710
"& COMPANY IDEAS LIMITED"	09043448	RETFORD	NOTTINGHAMSHIRE	""	"DN22 7BN"	Active	74100
"& DAUGHTER LIMITED"	08684770	WIMBORNE	DORSET	""	"BH21 1QE"	Active	46160
"!BIG IMPACT GRAPHICS LIMITED"	07382019	LONDON	""	""	"EC1V 9AV"	Active	59112
"$$$ LTD"	10540219	LONDON	""	ENGLAND	"N1 7GU"	Active	82990
"$UCCESSRECRUITMENT LTD"	10914264	LONDON	""	ENGLAND	"N19 5RN"	Active	70229
"& ALCHEMY DIGITAL COMMUNICATIONS LIMITED"	10381860	LONDON	""	ENGLAND	"WC1A 1DG"	Active	18203
"& ANOTHER DESIGN LIMITED"	08955184	LONDON	""	ENGLAND	"SW2 1HT"	Active	90030
"& SMITH LIMITED"	06508401	LONDON	""	ENGLAND	"N16 9AE"	Active	90030
"& SON STUDIO LIMITED"	10655307	LONDON	""	"UNITED KINGDOM"	"N15 5LJ"	Active	59111
"& STELLAR LTD"	10763707	LONDON	""	"UNITED KINGDOM"	"N11 2UT"	Active	47710
"& THE NEW ... LTD"	10709533	LONDON	""	ENGLAND	"E11 2PU"	Active	73120
"&&& LIMITED"	04971465	LONDON	""	""	"E15 4HF"	Active	82990
"&&& TECHNOLOGY LIMITED"	06497540	LONDON	""	""	"E15 4HF"	Active	82990
"&AGENCY LTD"	07696247	LONDON	""	""	"SE21 8EN"	Active	73110
"&BEYOND LONDON LTD"	08576287	LONDON	""	ENGLAND	"E5 0NH"	"Active - Proposal to Strike off"	62012
"&HYPE LIMITED"	10899892	LONDON	""	"UNITED KINGDOM"	"SE19 2TA"	Active	73200
"&MEETINGS LIMITED"	07398845	LONDON	""	"UNITED KINGDOM"	"WC1R 4AG"	Active	82990
"&OFFICES CANARY WHARF LIMITED"	07881928	LONDON	""	ENGLAND	"WC1R 4AG"	Active	68320
"&OFFICES EUSTON LIMITED"	10119754	LONDON	""	"UNITED KINGDOM"	"WC1R 4AG"	Active	68320
"&OFFICES LIMITED"	10171897	LONDON	""	"UNITED KINGDOM"	"WC1R 4AG"	Active	68320
"&OFFICES VICTORIA LIMITED"	05081019	LONDON	""	ENGLAND	"WC1R 4AG"	Active	68209
"&PASSEN LTD"	10223819	LONDON	""	"UNITED KINGDOM"	"E4 6RP"	Active	62020
"&RATIO LIMITED"	10327069	LONDON	""	"UNITED KINGDOM"	"NW6 3DB"	Active	47599
"&SISTERS LTD"	10510951	LONDON	""	ENGLAND	"SW15 2NU"	Active	17220
"''DIMI K'' LTD"	10325674	LONDON	""	ENGLAND	"SE6 2QF"	Active	81299
"'45 AID SOCIETY LIMITED"	00847998	LONDON	""	""	"W1T 3BL"	Active	88990
"'76 TO PRESENT LIMITED"	07386631	LONDON	""	""	"SW2 5RR"	Active	73110
"'A LUST FOR DUST' CLEANING SERVICES LIMITED"	10004171	LONDON	""	ENGLAND	"N1 7GU"	Active	82990
"'A PIECE OF' LIMITED"	07021112	LONDON	""	ENGLAND	"EC1V 1AW"	Active	74100
"'CAUSE YOU CAN LTD"	07219441	LONDON	""	""	"SW9 9JN"	Active	85590
"'COD' FELLA'S LIMITED"	03447161	LONDON	""	""	"SE16 1SB"	Active	82990
"'D' TOUR LTD"	10858254	LONDON	""	"UNITED KINGDOM"	"SE3 0UJ"	Active	56103
"'I.C.C. DRIVE' LTD"	09009954	LONDON	"NEW SOUTHGATE"	""	"N11 1AP"	Active	53202
"'MAKING IT BETTER' LIMITED"	07499732	LONDON	""	""	"W7 1AL"	Active	85590
"'MEM'S FISH BAR LIMITED"	05038237	LONDON	""	""	"SW19 1RH"	Active	56103
"'N KAY DISTRIBUTION LTD"	09265145	LONDON	""	""	"N16 6QB"	Active	46310
"'OUT OF THE BLUE' INTERNATIONAL  TRADING LIMITED"	05774262	LONDON	""	""	"N3 1HF"	Active	13200
"'Q' PRACTICAL ELECTRICAL LTD."	04377460	LONDON	""	""	"W3 6DR"	Active	59111
"'THIS SPACE' BUILDING SOLUTIONS LIMITED"	08404920	LONDON	""	""	"EC3V 0BT"	"Active - Proposal to Strike off"	82990
"'UNIVERSAL CONSTRUCTION FOREVER'LTD LIMITED"	10478348	LONDON	""	"UNITED KINGDOM"	"WC2H 9JQ"	Active	08110
"( THE LION'S DEN (TLD ) LTD."	08315563	LONDON	""	""	"SE17 2DW"	Active	59200
"(BRACKET) DESIGN LTD."	06134719	LONDON	""	""	"EC2A 4NE"	Active	62020
"(CGN) CAPITAL GROWTH NETWORK LTD"	09041461	LONDON	""	""	"W2 6DX"	Active	64303
"(EK) ONE SAFETY & MARINE CONSULTANTS LTD"	10726307	LONDON	""	ENGLAND	"EC1A 2BN"	Active	82990
"(EN)10 (GLOBAL) LIMITED"	07607684	LONDON	""	""	"W1J 8HY"	"Voluntary Arrangement"	96040
"(EN)10 LIMITED"	07159500	LONDON	""	ENGLAND	"W1J 8HY"	Active	86900
"(HEART) COLLECTIVE LIMITED"	09282629	LONDON	""	""	"WC1H 9LG"	Active	82990
"(HEART) PRODUCTIONS LIMITED"	06132185	LONDON	""	""	"WC1H 9LG"	Active	82990
"(HIS) CUMMINGS GLOBAL ASSOCIATES LTD"	08775182	LONDON	LONDON	""	"E16 2RD"	"Active - Proposal to Strike off"	70229
"(LONDON)M. LIMITED"	10876210	LONDON	""	"UNITED KINGDOM"	"SW3 2HP"	Active	47910
"(MEXES) METALS EXECUTION SERVICES LIMITED"	08171261	LONDON	""	ENGLAND	"EC2M 4QP"	Active	66190
"(RE)SPIRITED LIMITED"	10213854	LONDON	""	ENGLAND	"EC4N 6EU"	Active	74901
"(S)EISWEIN (BORDEAUX) LIMITED"	10681548	LONDON	""	"UNITED KINGDOM"	"N3 1LF"	Active	46342
"(S)EISWEIN (OLD WORLD) LIMITED"	10681561	LONDON	""	"UNITED KINGDOM"	"N3 1LF"	Active	46342
"(THE) COMMERCIAL COMPANY OF SALONICA LTD"	09936503	LONDON	""	ENGLAND	"EC1A 2BN"	Active	46190
"(TIANJIN) SIMON CHEMICAL CO., LTD"	09586548	LONDON	""	ENGLAND	"NW1 6EA"	Active	99999
"(UK) BANRUO INDUSTRY CO., LTD"	08947594	LONDON	""	ENGLAND	"NW1 6EA"	Active	99999
"(UK) BEST BUILDER LTD"	10232748	LONDON	""	"UNITED KINGDOM"	"N22 8HF"	Active	43999
"(UK) CEREN LTD"	10547064	LONDON	""	"UNITED KINGDOM"	"N22 8HF"	"Active - Proposal to Strike off"	56103
"(UK) DIGITAL CONSULTANT LTD"	10461207	LONDON	""	ENGLAND	"N5 2DU"	Active	73110
"(UK) PRODUCTION LTD"	06820890	LONDON	""	""	"N14 6JS"	Active	96090
"(UK) YIHOO INTERNATIONAL CULTURE & MEDIA CO., LTD"	09046788	LONDON	""	"UNITED KINGDOM"	"CR8 2AD"	Active	99999
"(UNCOMMON) LIMITED"	09806558	LONDON	""	ENGLAND	"SE1 0BL"	Active	71112
"(Y/N) STUDIO LIMITED"	10562404	LONDON	""	"UNITED KINGDOM"	"E2 6FX"	Active	96090
"* LTD"	05062633	LONDON	LONDON	""	"W1G 9QR"	Active	99999
"- LTD"	10219186	LONDON	""	"GREAT BRITAIN"	"NW9 9NL"	Active	62020
"-A-LIGHT TM OUTREACH"	08916895	LONDON	""	""	"WC1R 4PA"	Active	90010
"-FELIX ROAD OWNERS LIMITED"	08539420	LONDON	""	""	"W13 0NU"	Active	98000
"-LIMIT LIMITED"	09427889	LONDON	""	ENGLAND	"N1 7GU"	Active	96090
"-O- SING LTD"	09490689	LONDON	""	ENGLAND	"EC1V 2NX"	Active	46160
"-SLC-SUNGAET&-G-KARLSSON LTD"	07898395	LONDON	""	""	"N1 7GU"	Active	68100
".AS CIRE LIMITED"	02618499	LONDON	""	""	"EC4A 1AA"	Liquidation	66290
".KHOFI LTD"	10173373	LONDON	""	"UNITED KINGDOM"	"N18 2PZ"	Active	86101
".M PRODUCTIONS LTD"	09769723	LONDON	""	"UNITED KINGDOM"	"NW1 7SN"	Active	99999
".O.C.E.A.N .U.K. DESIGN LIMITED"	03274078	LONDON	""	""	"N2 0QS"	Active	71111
".WHITE KNIGHT CARS LTD"	05404147	LONDON	""	"UNITED KINGDOM"	"EC2Y 8BR"	Active	49320
"/A.R.I.A/ ARTIST RESIDENCY IN ALGIERS LIMITED"	08086525	LONDON	""	""	"SW9 7ND"	Active	90040
"/DEV-M LIMITED"	09198994	LONDON	""	""	"E12 5RT"	Active	62020
"0 EFFORT CORPORATION TAX SPREADSHEET LTD"	10018347	LONDON	""	"UNITED KINGDOM"	"E1W 2SD"	Active	62012
"0 FILMS LIMITED"	09547811	LONDON	""	"UNITED KINGDOM"	"SW1X 0AE"	Active	82990
"0 INFINITY LIMITED"	10911227	LONDON	""	"UNITED KINGDOM"	"E6 2JG"	Active	72190
"0 TO 100 LIMITED"	09925841	LONDON	""	""	"SE21 8LU"	Active	47910
"0-TWO MAINTENANCE LIMITED"	04817966	LONDON	""	""	"SE1 0LH"	Active	82990
"0.99 LIMITED"	10654937	LONDON	""	"UNITED KINGDOM"	"WC1X 0AN"	Active	62090
"00 AGENTS LTD"	10555714	LONDON	""	"UNITED KINGDOM"	"SE26 4PG"	Active	63990
"00 SYSTEMS LTD"	09322751	LONDON	""	"UNITED KINGDOM"	"WC1E 6AB"	Active	74909
"00'CONCIERGE LIMITED"	08915984	LONDON	""	"UNITED KINGDOM"	"SW6 4LZ"	Active	47910
"000 LTD"	10023617	LONDON	""	"UNITED KINGDOM"	"WC2H 9JQ"	Active	59111
"000X LIMITED"	10707978	LONDON	""	"UNITED KINGDOM"	"EC1V 2NX"	Active	80100
"001 FORMATION AGENT LTD"	08347137	LONDON	""	"UNITED KINGDOM"	"W1B 3HH"	Active	70229
"001 GROUP LTD"	10693608	LONDON	""	ENGLAND	"W1W 7LT"	Active	71111
"001 TRANSLATION AGENCY UK LTD"	07697332	LONDON	""	ENGLAND	"NW11 8HB"	Active	74300
"00153 LTD"	09675329	LONDON	""	ENGLAND	"SW6 1RP"	Active	99999
"00424081 LIMITED"	00424081	LONDON	""	ENGLAND	"SW1X 7AW"	Liquidation	74990
"007 PLUMBING AND HEATING LIMITED"	10422284	LONDON	""	"UNITED KINGDOM"	"SE18 1PY"	Active	41100
"007 SECURE LIMITED"	10391916	LONDON	""	ENGLAND	"W4 4JE"	Active	46180
00792620	00792620	LONDON	""	""	"EC2V 7HR"	Active	74990
"01 ACCOUNTING SERVICES LTD"	08936412	LONDON	""	""	"EC1A 2BN"	Active	69201
"01 ADANA KEBAB LTD"	10487547	LONDON	""	"UNITED KINGDOM"	"E8 4AU"	Active	56101
"01 ADANA LIMITED"	09223945	LONDON	""	ENGLAND	"N13 4XS"	Active	56102
"01 ALPHATECH SYSTEMS LIMITED"	09868899	LONDON	LONDON	ENGLAND	"EC3N 1AD"	Active	70229
"01 ECHO LIMITED"	07729222	LONDON	""	""	"SW1Y 5EA"	Active	99999
"01 HANDYMAN LTD"	09565554	LONDON	""	ENGLAND	"NW9 0NA"	Active	43320
"01 MANAGEMENT SERVICES LTD"	10196375	LONDON	""	ENGLAND	"N1 7GU"	Active	68320
"01 PRODUCTIONS LIMITED"	10644355	LONDON	""	"UNITED KINGDOM"	"EC4M 7JN"	Active	18202
"01 PROTECTION HOLDING LTD"	10786877	LONDON	""	"UNITED KINGDOM"	"WC2H 9JQ"	Active	80100
"01 PROTECTION LIMITED"	09588236	LONDON	""	ENGLAND	"SW18 1NY"	Active	80100
"01 VENTURES NOMINEE I LIMITED"	10227426	LONDON	""	"UNITED KINGDOM"	"NW1 8AB"	Active	64209
"01 VENTURES NOMINEE II LIMITED"	10227301	LONDON	""	"UNITED KINGDOM"	"NW1 8AB"	Active	64209
"01001010 01000011 01000010 LIMITED"	10050209	LONDON	""	"UNITED KINGDOM"	"E1W 2PB"	Active	62090
"016 LTD."	08567248	LONDON	""	""	"NW8 9GS"	Active	68100
"01795806 LIMITED"	01795806	LONDON	""	""	"SE1 2AF"	Liquidation	22210
"01DIRECT LTD"	08294893	LONDON	""	""	"NW4 4QE"	Active	61900
"01SOLUTION LTD"	09076447	LONDON	""	""	"SW16 4AH"	Active	62090
"02 BARBER LTD"	10251729	LONDON	""	ENGLAND	"NW3 5HH"	Active	96020
"0201 HALSTEAD HAND CAR WASH & VALETING CENTRE LIMITED"	09907663	LONDON	""	"UNITED KINGDOM"	"NW10 6RF"	Active	96090
"0208-203-4000 (TM) LTD"	09312409	LONDON	""	"UNITED KINGDOM"	"N3 3PX"	Active	61100
"0260 GROUP LTD"	10298953	LONDON	""	"UNITED KINGDOM"	"EC2Y 5AB"	Active	82990
"03122814 LIMITED"	03122814	LONDON	""	ENGLAND	"WC1H 9JG"	Active	45310
"03313860 LIMITED"	03313860	LONDON	""	""	"W4 4PH"	Active	96090
"03377216 LIMITED"	03377216	LONDON	""	ENGLAND	"SW6 4TJ"	Active	90030
"03519395 LIMITED"	03519395	LONDON	""	""	"SW19 4NG"	Active	68100
"036 LIMITED"	10393013	LONDON	""	"UNITED KINGDOM"	"EC1V 2NX"	Active	56101
"03962223 LTD"	03962223	LONDON	""	""	"W1F 8QE"	Active	74990
"04 STARS INTERNATIONAL SPORTS & ENTERTAINMENT CORPORATION LIMITED"	09931835	LONDON	""	ENGLAND	"W1J 6BY"	Active	96090
"042 TAKEAWAY LTD"	10199047	LONDON	""	"UNITED KINGDOM"	"E11 1HR"	Active	56103
"04487961 LIMITED"	04487961	LONDON	""	""	"NW1 6BB"	Liquidation	64999
"045 LTD"	09074759	LONDON	""	""	"W4 2PR"	Active	99999
"046 VENTURES LIMITED"	09116686	LONDON	""	ENGLAND	"E1 5NF"	Active	42120
"05-07 GDH LIMITED"	09667427	LONDON	""	"UNITED KINGDOM"	"N3 1XW"	Active	68100
"05-12 GDH LIMITED"	09669954	LONDON	""	"UNITED KINGDOM"	"N3 1XW"	Active	68100
"05012017 LIMITED"	10438288	LONDON	""	""	"EC4V 3BJ"	Active	70100
"050502 OLDCO LTD"	05603862	LONDON	""	ENGLAND	"E1W 1YN"	"Active - Proposal to Strike off"	68209
"05294168 LTD"	05294168	LONDON	""	""	"SE18 1SJ"	Active	47990
"05402096 LTD"	05402096	LONDON	""	""	"W14 9NL"	Active	99999
"055 RECRUITMENT SERVICES LTD"	10134463	LONDON	""	"UNITED KINGDOM"	"N7 8EX"	Active	82990
"05:12 LIMITED"	10383996	LONDON	""	"UNITED KINGDOM"	"SW18 1BU"	Active	82990
"06 ORMSKIRK LIMITED"	05540164	LONDON	""	""	"EC1Y 4UQ"	Active	45111
"06104809 LIMITED"	06104809	LONDON	""	""	"EC2P 2YU"	Liquidation	43999
"06235606 LIMITED"	06235606	LONDON	""	ENGLAND	"NW6 2EG"	Active	68320
"06250 SECURITIES LIMITED"	10051430	LONDON	""	"UNITED KINGDOM"	"W1K 2TW"	Active	99999
"06373349 LTD"	06373349	LONDON	""	""	"WC1H 9LG"	Liquidation	80100
"06631074 LIMITED"	06631074	LONDON	""	ENGLAND	"NW1 7HY"	Liquidation	41100
"06931804 LIMITED"	06931804	LONDON	""	"UNITED KINGDOM"	"CR8 2AD"	Active	99999
"06964907 LIMITED"	06964907	LONDON	""	"UNITED KINGDOM"	"W1B 3HH"	Liquidation	61200
"06988521 LIMITED"	06988521	LONDON	""	""	"E4 8NU"	"Active - Proposal to Strike off"	47110
"06989568 LIMITED"	06989568	LONDON	""	""	"WC1H 9LG"	Liquidation	41201
"06D LTD"	10902232	LONDON	""	ENGLAND	"E14 5AA"	Active	74100
"07 OZ COFFEE ROASTING LIMITED"	09897899	LONDON	""	ENGLAND	"N13 4XS"	Active	56102
"07-01 GDH LIMITED"	09669938	LONDON	""	"UNITED KINGDOM"	"N3 1XW"	Active	68100
"07124807 LIMITED"	07124807	LONDON	""	""	"E6 2BH"	Active	82990
"07383615 LTD"	07383615	LONDON	""	""	"EC1M 7AD"	Active	82990
"07428380 LIMITED"	07428380	LONDON	""	""	"WC1H 9LG"	Liquidation	56101
"07445648 LIMITED"	07445648	LONDON	""	""	"WC1H 9LG"	Liquidation	56210
"07496427 LIMITED"	07496427	LONDON	""	""	"WC1H 9LG"	Liquidation	56101
"07501749 LIMITED"	07501749	LONDON	""	""	"E14 2DN"	Active	99999
"07539116 LTD"	07539116	LONDON	""	""	"N16 5SA"	Active	71111
"07639588 LTD"	07639588	LONDON	""	""	"WC1H 9LG"	Liquidation	46410
"07676505 LIMITED"	07676505	LONDON	""	""	"NW10 8QD"	Active	47110
"07694179 LTD"	07694179	LONDON	""	"UNITED KINGDOM"	"SW6 4TJ"	"Active - Proposal to Strike off"	70221
"07763245 LIMITED"	07763245	LONDON	""	""	"WC1H 9LG"	Liquidation	13990
"08 ASSISTANS LIMITED"	08136484	LONDON	""	""	"SW1Y 5EA"	Active	99999
"080 GREAT BRITAIN LIMITED"	07501972	LONDON	""	""	"WC2H 7DQ"	Active	77390
"0800 HANDYMAN (EAST SHEEN) LTD"	07809040	LONDON	""	""	"SW14 8AG"	Active	96090
"0800 HANDYMAN MOBILE LIMITED"	04154048	LONDON	""	""	"SW14 8AG"	Active	96090
"0800 HANDYMAN PUTNEY LIMITED"	02921967	LONDON	""	""	"SW14 8AG"	Active	74990
"0800 HANDYMAN RETAIL LIMITED"	10652172	LONDON	""	ENGLAND	"SW14 8AG"	Active	43999
"0800 RECRUIT LIMITED"	03792220	LONDON	""	""	"E14 5AP"	Active	74990
"08000 RECRUIT LIMITED"	03829341	LONDON	""	""	"E14 5AP"	Active	74990
"0800DOCMORRIS LIMITED"	04780617	LONDON	""	ENGLAND	"EC2R 6AD"	Active	74909
"0800MOVES.COM LIMITED"	07755000	LONDON	""	""	"N13 4BS"	Active	96090
"0800Z LIMITED"	06476346	LONDON	""	ENGLAND	"W1U 2NT"	Active	96090
"08031603 LIMITED"	08031603	LONDON	""	""	"E12 6BT"	Active	82990
"0808 CAMERA SERVICES LIMITED"	06933403	LONDON	""	""	"EC3A 5BU"	Active	82990
"08092113 LIMITED"	08092113	LONDON	""	""	"NW1 7ET"	Active	69203
"08149022 LTD"	08149022	LONDON	""	""	"E1 5QJ"	"Active - Proposal to Strike off"	64303
"08208819 LTD"	08208819	LONDON	""	""	"E1 5QJ"	"Active - Proposal to Strike off"	64303
"08209545 LTD"	08209545	LONDON	""	""	"E1 5QJ"	"Active - Proposal to Strike off"	64303
"08281739 LIMITED"	08281739	LONDON	""	""	"WC1H 9LG"	Liquidation	82990
"08317481 LIMITED"	08317481	LONDON	""	ENGLAND	"SE28 8PF"	Active	86210
"08489534 LIMITED"	08489534	LONDON	""	""	"WC1N 3AX"	"Active - Proposal to Strike off"	45111
"08569679 LIMITED"	08569679	LONDON	""	"UNITED KINGDOM"	"CR8 2AD"	Active	99999
"08617963 LIMITED"	08617963	LONDON	""	ENGLAND	"N14 5BP"	Active	99999
"08628087 LIMITED"	08628087	LONDON	""	""	"E14 2DN"	Active	99999
"08640281 LTD"	08640281	LONDON	""	""	"SE17 2UJ"	"Active - Proposal to Strike off"	86101
"08657124 LIMITED"	08657124	LONDON	""	""	"E17 9SD"	Active	42990
"08782595 LTD"	08782595	LONDON	""	""	"W1D 7LH"	Active	56101
"08790357 LIMITED"	08790357	LONDON	""	""	"SW19 8RR"	Active	47910
"089 LTD"	09072054	LONDON	""	""	"N12 8NP"	"Active - Proposal to Strike off"	47110
"08911028 LIMITED"	08911028	LONDON	""	"UNITED KINGDOM"	"CR8 2AD"	Active	99999
"0899 B.C LTD"	08088843	LONDON	""	"UNITED KINGDOM"	"CR8 2AD"	Active	99999
"08MARINE SWEDEN LIMITED"	07879462	LONDON	""	""	"SW1Y 5EA"	Active	99999
"090502 LIMITED"	04434146	LONDON	""	"UNITED KINGDOM"	"EC4A 1JP"	Active	82990
"09070373 LTD"	09070373	LONDON	""	""	"N1 7TA"	"Active - Proposal to Strike off"	82990
"09294080 LIMITED"	09294080	LONDON	""	"UNITED KINGDOM"	"SE25 6YD"	Active	46130
"09325951 LTD"	09325951	LONDON	""	ENGLAND	"E4 9SF"	Active	43910
"09347045 LIMITED"	09347045	LONDON	""	"UNITED KINGDOM"	"E16 2AE"	Active	56210
"09440854 LIMITED"	09440854	LONDON	""	""	"W1B 3HH"	Active	62090
"09451461 LTD"	09451461	LONDON	""	ENGLAND	"SW1X 0AE"	Active	74100
"09531549 LTD"	09531549	LONDON	""	"UNITED KINGDOM"	"WC1B 3HD"	Active	62020
"09607722 LIMITED"	09607722	LONDON	""	"UNITED KINGDOM"	"CR8 2AD"	"Active - Proposal to Strike off"	99999
"09621728 LIMITED"	09621728	LONDON	""	""	"W12 8HS"	Active	96090
"09723140 LTD"	09723140	LONDON	""	ENGLAND	"N12 0DR"	Active	70229
"09773784 LIMITED"	09773784	LONDON	""	"UNITED KINGDOM"	"WC2H 9JQ"	"Active - Proposal to Strike off"	41202
"09822403 LIMITED"	09822403	LONDON	""	"UNITED KINGDOM"	"N22 8HH"	Active	99999
"09861589 LTD"	09861589	LONDON	""	ENGLAND	"WC2H 9JQ"	Active	82990
"09931150 LIMITED"	09931150	LONDON	""	ENGLAND	"WC2H 9JQ"	Active	62090
"09939493 LTD"	09939493	LONDON	""	"UNITED KINGDOM"	"EC3V 9DF"	Active	74990
"09974278 LTD"	10644184	LONDON	""	"UNITED KINGDOM"	"N16 8AD"	"Active - Proposal to Strike off"	56290
"0BRAND LIMITED"	08820479	LONDON	""	ENGLAND	"W1B 4EZ"	Active	82990
"0COM.CO.UK LIMITED"	08358442	LONDON	""	""	"SW16 2AS"	Active	68320
"0E DESIGNS LIMITED"	09811627	LONDON	LONDON	ENGLAND	"WC1A 2SE"	Active	62011
"0E0E LTD"	10186883	LONDON	""	"UNITED KINGDOM"	"W13 9UT"	Active	90030
"0Z CRYSTAL LIMITED"	09052918	LONDON	""	""	"N22 6DS"	Active	56101
"1 & 2 DRAKES COURTYARD LTD"	10770064	LONDON	""	"UNITED KINGDOM"	"NW2 6GY"	Active	68100
"1 & 2 GODSON YARD FREEHOLD COMPANY LTD"	10598676	LONDON	""	"UNITED KINGDOM"	"NW6 5FE"	Active	98000
"1 & 2 KELMAN CLOSE LIMITED"	09849080	LONDON	""	"UNITED KINGDOM"	"SW4 6JE"	Active	98000
"1 & 2 PIERHEAD RESIDENTS LIMITED"	01039922	LONDON	""	""	"E1W 1PN"	Active	68201
"1 & 3 SHIPMAN ROAD MANAGEMENT COMPANY LIMITED"	06689723	LONDON	""	""	"SE23 2DY"	Active	98000
"1 & 4 & 7 TRITON LIMITED"	06024918	LONDON	""	""	"W1H 7LX"	Active	41100
"1 & BEST LTD"	08370012	LONDON	""	ENGLAND	"N3 1ER"	Active	46170
"1 & ONLY MUSIC LIMITED"	10734448	LONDON	""	"UNITED KINGDOM"	"NW6 1JZ"	Active	59200
"1 - 10 MANAGEMENT COMPANY LIMITED"	02715803	LONDON	""	""	"E9 7EA"	Active	94990
"1 - 15 GRANGE COURT FREEHOLD LIMITED"	10056992	LONDON	""	"UNITED KINGDOM"	"SW16 3QB"	Active	98000
"1 - 4 BEVAN HOUSE SOUTH ROAD FAVERSHAM LIMITED"	09622407	LONDON	""	ENGLAND	"SW1E 6PB"	Active	68209
"1 / 8TH CAPITAL PARTNERSHIP LIMITED"	10856397	LONDON	""	"UNITED KINGDOM"	"N20 0UB"	Active	64301
"1 11 13 LTD"	08756754	LONDON	TWICKENHAM	"UNITED KINGDOM"	"TW1 2AR"	Active	69202
"1 2 1 RECRUITMENT CONSULTANTS LIMITED"	08359864	LONDON	""	""	"W1S 1BN"	"Active - Proposal to Strike off"	78200
"1 2 1 VISA SERVICES LIMITED"	07639106	LONDON	""	""	"W2 2DS"	Active	99999
"1 2 ONE ENTERTAINMENT (UK) LTD"	07641845	LONDON	""	ENGLAND	"NW1 8NL"	Active	59200
"1 A,B,C, WINDSOR ROAD LIMITED"	03016886	LONDON	""	"UNITED KINGDOM"	"N3 3SZ"	Active	98000
"1 ABILITY ESTATE AGENTS LIMITED"	10766869	LONDON	""	ENGLAND	"E10 6JQ"	Active	68310
"1 ABILITY RESIDENTIAL LIMITED"	10766641	LONDON	""	ENGLAND	"E10 6JQ"	Active	68310
"1 ABS LIMITED"	10479681	LONDON	""	"UNITED KINGDOM"	"E12 5BT"	Active	80100
"1 ACE SECURITY LTD"	07509927	LONDON	""	ENGLAND	"E7 9HZ"	Active	85590
"1 ACE SECURITY SERVICES LTD"	10318844	LONDON	""	""	"E7 9HZ"	Active	80100
"1 ALLFARTHING LANE LIMITED"	05682396	LONDON	""	""	"SW18 2PG"	Active	68209
"1 ALMA ROAD LONDON LIMITED"	06668466	LONDON	""	""	"N3 2FG"	Active	99999
"1 ALS LIMITED"	10405429	LONDON	""	ENGLAND	"E3 2SE"	Active	85590
"1 AND 2 BLOOMSBURY PLACE LIMITED"	07200623	LONDON	""	""	"N14 6JS"	Active	99999
"1 AND 2 BOWLING GREEN PLACE FREEHOLD COMPANY LIMITED"	09664771	LONDON	""	ENGLAND	"EC4V 6AP"	Active	68209
"1 AND 3 EARDLEY CRESCENT LTD."	07865058	LONDON	""	ENGLAND	"W4 1HA"	Active	98000
"1 ARTISTS LIMITED"	09432972	LONDON	""	"UNITED KINGDOM"	"EC2M 4NJ"	Active	59200
"1 AS TALENT LTD"	10609444	LONDON	""	ENGLAND	"N1 7GU"	Active	82990
"1 ASCALON STREET RTM COMPANY LTD"	07859125	LONDON	""	""	"E18 2QS"	Active	98000
"1 ASEEL LTD"	09467062	LONDON	""	ENGLAND	"NW1 7JL"	"Active - Proposal to Strike off"	86900
"1 AVENUE MEWS MANAGEMENT COMPANY LIMITED"	05443743	LONDON	""	""	"N10 3NP"	Active	55900
"1 BAKER'S ROW RESIDENTS LIMITED"	08482254	LONDON	""	""	"EC1R 3DB"	Active	98000
"1 BARLOW PLACE LIMITED"	08259814	LONDON	""	""	"SW6 2LT"	Active	98000
"1 BARROWGATE ROAD (LONDON) LIMITED"	04424336	LONDON	""	ENGLAND	"W4 4QY"	Active	68209
"1 BEACHY ROAD LTD"	09584176	LONDON	LONDON	ENGLAND	"SW17 9NH"	Active	41100
"1 BEAUFORT STREET LIMITED"	03853913	LONDON	""	""	"W1H 7JG"	Active	74990
"1 BELSIZE AVENUE LIMITED"	04106685	LONDON	""	""	"NW3 4BL"	Active	98000
"1 BELSIZE PARK LIMITED"	06914222	LONDON	""	""	"NW5 2LG"	Active	68209
"1 BESPOKE SOLUTION LIMITED"	10637842	LONDON	""	"UNITED KINGDOM"	"W1T 1DG"	Active	68320
"1 BIG DADDY LTD"	10100749	LONDON	BARNET	"UNITED KINGDOM"	"NW4 4LH"	Active	43342
"1 BIG NIGHT OUT EVENTS LTD"	09096713	LONDON	""	ENGLAND	"W1T 1UT"	Active	79120
"1 BINA GARDENS FREEHOLD LIMITED"	03321447	LONDON	""	""	"SW10 9PT"	Active	98000
"1 BIRNAM ROAD (FREEHOLD) LIMITED"	07234058	LONDON	""	""	"SW11 6PZ"	Active	98000
"1 BISHOPS ROAD LIMITED"	03132878	LONDON	""	""	"N6 4HP"	Active	98000
"1 BOUTFLOWER ROAD RTM COMPANY LIMITED"	08128897	LONDON	""	ENGLAND	"SW11 6LT"	Active	68209
"1 BOVINGDON ROAD FREEHOLD LIMITED"	04550264	LONDON	""	""	"SW1H 9DJ"	Active	98000
"1 BOW CHURCHYARD TENANT LIMITED"	09881589	LONDON	""	"UNITED KINGDOM"	"EC4A 1BR"	Active	68209
"1 BRICKWORK AND LANDSCAPING LIMITED"	09887851	LONDON	""	ENGLAND	"SE9 5LT"	Active	43999
"1 BRYANSTON SQUARE FREEHOLD LIMITED"	08514278	LONDON	""	""	"W1H 2DH"	Active	55900
"1 BUCKLAND CRESCENT RTM COMPANY LIMITED"	06485026	LONDON	""	""	"NW3 5DH"	Active	81100
"1 BURNT OAK LTD"	09590013	LONDON	""	ENGLAND	"NW1 0AG"	Active	68100
"1 BUZZ LTD"	10785101	LONDON	""	ENGLAND	"N1 7GU"	Active	82990
"1 C UK LIMITED"	04418738	LONDON	""	ENGLAND	"N17 6AE"	Active	62011
"1 CAMPBELL ROAD FREEHOLD LIMITED"	06697660	LONDON	""	""	"E3 4DS"	Active	99999
"1 CARGREEN ROAD RTM COMPANY LTD"	10539362	LONDON	""	"UNITED KINGDOM"	"N14 5BP"	Active	68320
"1 CHARLES STREET LIMITED"	02539475	LONDON	""	""	"N3 2FG"	Active	74990
"1 CHARTER WALK LTD"	10523016	LONDON	""	"UNITED KINGDOM"	"W1W 5PF"	Active	47789
"1 CHEPSTOW VILLAS LIMITED"	02419669	LONDON	""	""	"W11 3EE"	Active	98000
"1 CINTRA PARK RESIDENTS COMPANY LIMITED"	04410426	LONDON	""	""	"SE19 2LH"	Active	98000
"1 CITY CONSULTANCY LIMITED"	10128730	LONDON	""	"UNITED KINGDOM"	"SW18 1TT"	Active	70229
"1 CITY DUCT LIMITED"	10461308	LONDON	""	ENGLAND	"SE3 7RD"	Active	43220
"1 CLERKENWELL GREEN FREEHOLD LIMITED"	08376324	LONDON	""	""	"WC1B 4HP"	Active	98000
"1 CLICK HOMES (SALES) LTD"	08755431	LONDON	""	ENGLAND	"E10 5PW"	Active	68320
"1 CLICK HOMES LTD"	06666580	LONDON	""	ENGLAND	"E10 5PW"	Active	68320
"1 CLICK PROPERTIES LIMITED"	08318704	LONDON	""	""	"W6 8NX"	Active	99999
"1 CLICK SPORTS MANAGEMENT LIMITED"	09622094	LONDON	""	ENGLAND	"E10 5PW"	Active	93120
"1 CLICK STAR LIMITED"	09970744	LONDON	""	"UNITED KINGDOM"	"SE25 6EF"	Active	73110
"1 CLIFTON GARDENS LIMITED"	01864678	LONDON	""	""	"W9 1AL"	Active	98000
"1 CLOUD GROUP LIMITED"	10156949	LONDON	""	ENGLAND	"W8 6BD"	Active	62020
"1 COLNBROOK STREET MANAGEMENT COMPANY LIMITED"	07251584	LONDON	""	""	"SE1 6EZ"	Active	98000
"1 COMM SYSTEMS LIMITED"	09085736	LONDON	""	ENGLAND	"E6 1LA"	Active	62020
"1 COMMUNITY PROJECT C.I.C."	08185099	LONDON	""	""	"E1 6RG"	Active	93290
"1 CONCORDE WAY RTM COMPANY LTD"	10448292	LONDON	""	ENGLAND	"E8 4DG"	Active	98000
"1 CORRANCE ROAD (FREEHOLD) LIMITED"	08128634	LONDON	""	""	"SW2 5RD"	Active	68209
"1 CRANWICH ROAD MANAGEMENT COMPANY LIMITED"	05225769	LONDON	""	""	"N16 5HZ"	Active	98000
"1 CREDITLINK LTD"	10053047	LONDON	""	ENGLAND	"N1 7GU"	Active	64999
"1 CRESCENT WAY RTM COMPANY LIMITED"	05780123	LONDON	""	""	"SE4 1QL"	Active	98000
"1 CROOKHAM ROAD MANAGEMENT COMPANY LIMITED"	02475569	LONDON	""	ENGLAND	"SW3 3LG"	Active	98000
"1 CUMBERLAND PARK RESIDENTS ASSOCIATION LIMITED"	03341473	LONDON	""	""	"W3 6SY"	Active	98000
"1 CUMBRIAN GARDENS FREEHOLD LTD"	10644868	LONDON	""	ENGLAND	"NW2 1NT"	Active	82990
"1 CUMBRIAN GARDENS FREEHOLD MANAGEMENT LIMITED"	10828255	LONDON	""	ENGLAND	"NW2 1NT"	Active	82990
"1 CUPAR ROAD (FREEHOLD) LIMITED"	08696304	LONDON	""	""	"SW11 4JW"	Active	68209
"1 D-SIGN LIMITED"	10882087	LONDON	""	ENGLAND	"E11 3AW"	Active	96090
"1 DALMORE ROAD LIMITED"	03503752	LONDON	""	ENGLAND	"SE21 8HD"	Active	82990
"1 DAY DEMOLITION LTD"	10057945	LONDON	""	ENGLAND	"E18 1AN"	Active	43110
"1 DAYSBROOK ROAD FREEHOLD LIMITED"	06601998	LONDON	""	""	"SW2 3TB"	Active	98000
"1 DEAL SOLAR POWER LIMITED"	07304252	LONDON	""	""	"NW2 7UH"	Active	82990
"1 DEAL STREET LIMITED"	03789845	LONDON	""	""	"N12 0DR"	Active	98000
"1 DOWN 5 UP EXPERIENCE LIMITED"	10936928	LONDON	""	"UNITED KINGDOM"	"WC2H 9JQ"	Active	93290
"1 DUNOLLIE PLACE LIMITED"	02673746	LONDON	ENGLAND	""	"NW5 2XR"	Active	98000
"1 EARLS COURT SQUARE FREEHOLD LIMITED"	09156883	LONDON	""	ENGLAND	"W6 0RR"	Active	98000
"1 ECCLESTON SQUARE LIMITED"	03680601	LONDON	""	""	"SE12 9PP"	Active	98000
"1 ELIOT PARK MANAGEMENT COMPANY LIMITED"	05037210	LONDON	""	""	"SE3 7DW"	Active	74990
"1 ELSWORTHY TERRACE FREEHOLD LTD"	10710014	LONDON	""	ENGLAND	"NW3 3DR"	Active	82990
"1 EMPIRE KIDS LIMITED"	10442619	LONDON	""	"UNITED KINGDOM"	"E15 2SP"	Active	47650
"1 ENGLEWOOD ROAD MANAGEMENT COMPANY LIMITED"	08892307	LONDON	""	""	"SW12 9PA"	Active	68320
"1 ESSENDINE ROAD (FREEHOLD) LIMITED"	10313140	LONDON	""	"UNITED KINGDOM"	"W9 2LS"	Active	98000
"1 ESSENTIALS LTD"	09911616	LONDON	""	ENGLAND	"E1 5RD"	Active	47990
"1 ESTELLE ROAD MANAGEMENT LIMITED"	01818467	LONDON	""	""	"N12 9DA"	Active	98000
"1 ETON AVENUE MANAGEMENT LIMITED"	04627597	LONDON	""	""	"NW3 3EL"	Active	98000
"1 EXETER MANAGEMENT LIMITED"	08396141	LONDON	""	""	"NW2 4SJ"	Active	98000
"1 EYED DEER LIMITED"	08478038	LONDON	""	""	"W1B 3HH"	Active	14190
"1 FILM COLLECTIVE LIMITED"	10443420	LONDON	""	"UNITED KINGDOM"	"SW4 9HU"	Active	59112
"1 FOR ALL FOODS LIMITED"	10816798	LONDON	""	"UNITED KINGDOM"	"E1 1NU"	Active	47290
"1 FORDINGLEY ROAD RTM COMPANY LIMITED"	09398174	LONDON	""	""	"W9 3HE"	Active	68320
"1 FROGNAL (MANAGEMENT) LIMITED"	03309138	LONDON	""	""	"NW2 2ED"	Active	98000
"1 GAME AGENT LIMITED"	03891976	LONDON	""	""	"SW20 8QL"	Active	74990
"1 GLEDHOW GARDENS LIMITED"	04445195	LONDON	""	""	"W14 0QH"	Active	98000
"1 GLENDOWER PLACE RTM COMPANY LTD"	10455582	LONDON	"GREATER LONDON"	ENGLAND	"SW7 3DU"	Active	98000
"1 GLOUCESTER STREET RTM COMPANY LIMITED"	08660005	LONDON	""	""	"SW1V 2DB"	Active	98000
"1 GOULDEN ROAD MANAGEMENT COMPANY LIMITED"	04836709	LONDON	""	ENGLAND	"SW18 1JG"	Active	94990
"1 HALF LTD"	10061363	LONDON	""	ENGLAND	"N1 7GU"	Active	62020
"1 HAMPSTEAD HILL GARDENS FREEHOLD LTD."	04228104	LONDON	""	""	"NW5 2TP"	Active	98000
"1 HARECOURT ROAD ISLINGTON LIMITED"	04667839	LONDON	""	""	"WC1X 8TA"	Active	81100
"1 HDRD LIMITED"	09645810	LONDON	""	ENGLAND	"W2 4AB"	Active	68209
"1 HEATHFIELD GARDENS (FREEHOLD) LIMITED"	07792717	LONDON	""	""	"NW3 1EH"	Active	99999
"1 HEATHFIELD ROAD LIMITED"	05622919	LONDON	""	""	"EC3V 0BT"	Active	68209
"1 HEREFORD ROAD LIMITED"	08454035	LONDON	""	ENGLAND	"W2 4AB"	"Active - Proposal to Strike off"	82990
"1 HIGH STREET POOLE LIMITED"	09354386	LONDON	""	ENGLAND	"SE1 9QR"	Active	74990
"1 HOLLYBUSH TERRACE LIMITED"	08576021	LONDON	""	""	"SE19 2QA"	Active	68100
"1 HOLLYBUSH TERRACE MANAGEMENT LIMITED"	08802845	LONDON	""	""	"SE19 2QA"	Active	68320
"1 HOLMEWOOD GARDENS MANAGEMENT COMPANY LIMITED"	05415675	LONDON	""	""	"SW2 3RS"	Active	68209
"1 HOMESTEAD ROAD LIMITED"	02702795	LONDON	""	ENGLAND	"SW6 4EQ"	Active	98000
"1 HOPTON ROAD FREEHOLD LIMITED"	09493592	LONDON	""	ENGLAND	"SW16 2EG"	Active	98000
"1 HOWITT ROAD MANAGEMENT COMPANY LIMITED"	04396497	LONDON	""	""	"N12 8NP"	Active	68320
"1 I LIVE BY FAITH LIMITED"	08888440	LONDON	""	ENGLAND	"SE1 8DR"	Active	79120
"1 INMAN ROAD MANAGEMENT COMPANY LIMITED"	03201238	LONDON	""	""	"SW18 3BB"	Active	98000
"1 INSPIRATIONAL STEP LTD"	09300732	LONDON	""	ENGLAND	"EC1N 8JY"	Active	85590
"1 JACKSONS LANE MANAGEMENT CO. LIMITED"	02151200	LONDON	""	""	"N6 5SR"	Active	98000
"1 JEFFREYS ROAD FREEHOLD LIMITED"	04490995	LONDON	""	""	"SW4 6QU"	Active	55900
"1 KELROSS ROAD LIMITED"	07142017	LONDON	""	""	"N5 2QS"	Active	68209
"1 KENNINGTON PARK PLACE LIMITED"	05834221	LONDON	""	ENGLAND	"SW16 2DE"	Active	55900
"1 KENSINGTON ROAD MANAGEMENT COMPANY LIMITED"	08898128	LONDON	""	""	"WC2N 5AP"	Active	99999
"1 KENTISH TOWN LTD"	10638427	LONDON	""	"UNITED KINGDOM"	"W1U 5NP"	Active	56210
"1 KINGS AVENUE MANAGEMENT LIMITED"	05653902	LONDON	""	""	"N21 3NA"	Active	70229
"1 KINGS ROAD MEWS LTD"	06764006	LONDON	""	""	"SE22 0RR"	Active	68209
"1 KINGSCOURT ROAD LIMITED"	06859285	LONDON	""	""	"SW16 1JA"	Active	98000
"1 KINGSLAND PASSAGE LIMITED"	05262077	LONDON	""	ENGLAND	"SE1 8NW"	Active	41100
"1 LADY SOMERSET MANAGEMENT LIMITED"	08287045	LONDON	""	""	"NW5 1UR"	Active	68320
"1 LANCASTER GARDENS DEVELOPMENTS LIMITED"	09052516	LONDON	""	""	"WC1N 2EB"	Active	68100
"1 LANDCROFT ROAD LIMITED"	10850937	LONDON	""	"UNITED KINGDOM"	"EC2A 4DJ"	Active	68100
"1 LEADENHALL GP LIMITED"	10581378	LONDON	""	"UNITED KINGDOM"	"EC2M 3XD"	Active	68100
"1 LEADENHALL NOMINEE LIMITED"	10581466	LONDON	""	"UNITED KINGDOM"	"EC2M 3XD"	Active	68100
"1 LEATHWAITE ROAD LIMITED"	05186133	LONDON	""	""	"SW11 1XG"	Active	98000
"1 LECONFIELD ROAD MANAGEMENT LIMITED"	08602774	LONDON	""	""	"N22 7UL"	Active	98000
"1 LIME GROVE (SHEPHERDS BUSH) LIMITED"	03380071	LONDON	""	""	"W12 8EE"	Active	98000
"1 LINDORE ROAD MANAGEMENT COMPANY LIMITED"	04862475	LONDON	""	""	"SW11 1HJ"	Active	99999
"1 LINK ENT. LTD"	10778160	LONDON	""	"UNITED KINGDOM"	"E4 9QF"	Active	59200
"1 LOVE COMMUNITY C.I.C."	09176855	LONDON	""	""	"E14 9TP"	Active	01610
"1 LP LIMITED"	07947662	LONDON	""	"UNITED KINGDOM"	"W1T 1QL"	Active	82990
"1 LYNDHURST GARDENS LIMITED"	03786553	LONDON	""	""	"NW3 5NS"	Active	68209
"1 LYNTON ROAD LIMITED"	07857543	LONDON	""	""	"N8 8SR"	Active	55900
"1 M DETAILING LTD"	10681300	LONDON	""	ENGLAND	"N1 7GU"	Active	82990
"1 MADEIRA ROAD MANAGEMENT LIMITED"	08958990	LONDON	""	"UNITED KINGDOM"	"SW16 2DB"	Active	98000
"1 MAN 1 GUITAR PRODUCTIONS LTD"	07818597	LONDON	LONDON	""	"SE8 4QE"	Active	58190
"1 MANDALA LTD"	10289669	LONDON	""	ENGLAND	"N1 7GU"	Active	82990
"1 MANSON PLACE LIMITED"	09678970	LONDON	""	ENGLAND	"SW7 5LT"	Active	66290
"1 MAPLETON CRESCENT LIMITED"	05856012	LONDON	""	""	"EC1Y 2AB"	Active	41100
"1 MARK SQUARE TENANT LIMITED"	09696330	LONDON	""	ENGLAND	"EC4A 1BR"	Active	68209
"1 MAWSON CLOSE MANAGEMENT COMPANY LIMITED"	10328161	LONDON	""	ENGLAND	"SW19 4BJ"	Active	98000
"1 MEDICO LTD"	10480313	LONDON	""	ENGLAND	"N1 7GU"	Active	82990
"1 MEMBR GROUP LTD"	10662291	LONDON	""	ENGLAND	"SW18 2AX"	Active	82990
"1 MINUTE WALKS LTD"	10486021	LONDON	""	"UNITED KINGDOM"	"SW13 0NP"	Active	90030
"1 MM MEDIA LIMITED"	07235735	LONDON	""	ENGLAND	"W13 8RA"	Active	58130
"1 MOBILE LIMITED"	07377315	LONDON	""	"UNITED KINGDOM"	"EC1Y 2AB"	"Active - Proposal to Strike off"	62090
"1 MONTENOTTE ROAD LIMITED"	04200875	LONDON	""	""	"N8 8RL"	Active	55900
"1 MOTORING LIMITED"	10687623	LONDON	""	ENGLAND	"EC1V 9BD"	Active	45112
"1 MOULINS RTM COMPANY LIMITED"	08439210	LONDON	""	ENGLAND	"E9 7EL"	Active	98000
"1 NANCY ROAD RTM COMPANY LIMITED"	09809014	LONDON	""	""	"NW1 9QS"	Active	98000
"1 NORFOLK TERRACE (BRIGHTON) LIMITED"	06923717	LONDON	""	""	"W1W 8DH"	Active	98000
"1 NORTH POLE ROAD (MANAGEMENT) LIMITED"	06580065	LONDON	""	""	"W10 6QH"	Active	98000
"1 NORTHBROOK ROAD RTM COMPANY LIMITED"	07413739	LONDON	""	""	"SE13 5QT"	Active	98000
"1 OAK ENTERTAINMENT LIMITED"	10059241	LONDON	""	""	"E6 7LA"	Active	99999
"1 OAK ORGANISATION LIMITED"	10481054	LONDON	""	"UNITED KINGDOM"	"SE8 5DY"	Active	96090
"1 OF 1 WORLD LIMITED"	10348113	LONDON	UK	"UNITED KINGDOM"	"N1 8BW"	Active	59112
"1 PALACE COURT MANAGEMENT COMPANY LIMITED"	10861667	LONDON	""	"UNITED KINGDOM"	"SW3 3DD"	Active	96090
"1 PARADISE GARDENS LIMITED"	09990983	LONDON	""	"UNITED KINGDOM"	"EC1Y 2AB"	Active	68209
"1 PARCEL LTD"	10094925	LONDON	""	ENGLAND	"N16 5SA"	Active	53201
"1 PARK HILL CLAPHAM MANAGEMENT LIMITED"	04322013	LONDON	""	""	"SW11 6NZ"	Active	98000
"1 PARK ROAD SE25 FREEHOLD COMPANY LTD"	10608570	LONDON	""	"UNITED KINGDOM"	"SE25 6LA"	Active	68100
"1 PARKHILL LTD"	09932679	LONDON	""	ENGLAND	"NW4 4NJ"	Active	96090
"1 PEMBERTON GARDENS (MANAGEMENT) LIMITED"	01768306	LONDON	""	""	"N19 5RR"	Active	81100
"1 PERCENT WOMEN LTD."	10478860	LONDON	""	"UNITED KINGDOM"	"E1 8FA"	Active	58290
"1 PERRERS ROAD LIMITED"	07248368	LONDON	""	""	"W6 0EY"	Active	98000
"1 PETERBOROUGH VILLAS LIMITED"	03592458	LONDON	""	""	"SW5 0RA"	Active	68320
"1 PINFOLD ROAD LIMITED"	06605833	LONDON	""	""	"SW19 1EX"	Active	98000
"1 PLUS 1 EQUALS 10 LTD"	08202746	LONDON	""	ENGLAND	"EC2A 4NE"	Active	60200
"1 PLUS 2 BOOKKEEPING LIMITED"	07664823	LONDON	""	ENGLAND	"EC1V 1AW"	Active	82990
"1 PRIMROSE GARDENS RESIDENTS COMPANY LIMITED"	02675092	LONDON	""	""	"NW3 4UJ"	Active	98000
"1 QUEENSBERRY PLACE RTM COMPANY LIMITED"	10468864	LONDON	""	ENGLAND	"W4 5PY"	Active	98000
"1 RANGO SOLUTION LIMITED"	10843068	LONDON	""	ENGLAND	"WC2H 9JQ"	Active	63110
"1 RAVENNA ROAD MANAGEMENT COMPANY LTD."	09045957	LONDON	""	""	"SW15 6AW"	Active	98000
"1 RAVENSTONE ROAD LIMITED"	05304778	LONDON	""	""	"N8 0JT"	Active	68209
"1 RECREATION ROAD MANAGEMENT COMPANY LIMITED"	01927265	LONDON	""	""	"SE26 5SD"	Active	87900
"1 RED PROPERTIES LIMITED"	08517482	LONDON	""	""	"WC2H 9JQ"	Active	68100
"1 REDE PLACE LIMITED"	08467155	LONDON	""	"UNITED KINGDOM"	"EC1Y 2AB"	Active	41100
"1 RESIDENTIAL LIMITED"	08862193	LONDON	""	ENGLAND	"NW1 9NX"	Active	68310
"1 RIBBLESDALE ROAD MANAGEMENT COMPANY LIMITED"	09286684	LONDON	""	""	"SW16 6SF"	Active	68209
"1 RUTLAND GATE LIMITED"	01760643	LONDON	""	""	"W14 0QH"	Active	98000
"1 SALES LIMITED"	09121516	LONDON	""	""	"W1B 3HH"	Active	70229
"1 SAVILLE ROAD MANAGEMENT COMPANY LIMITED"	07990682	LONDON	""	""	"W4 5HQ"	Active	98000
"1 SCORPIO LTD"	10714779	LONDON	""	"UNITED KINGDOM"	"W5 1SN"	Active	96090
"1 SHALIMAR ROAD LIMITED"	07609975	LONDON	""	""	"W3 9JD"	Active	98000
"1 SK RENTALS LTD"	10868703	LONDON	""	"UNITED KINGDOM"	"EC1A 2BN"	Active	82990
"1 SOUTHCOTE ROAD MANAGEMENT COMPANY LIMITED"	10236946	LONDON	DURHAM	"UNITED KINGDOM"	"N14 7LU"	Active	81100
"1 SOUTHSIDE LIMITED"	05373570	LONDON	""	""	"N15 4DQ"	Active	98000
"1 SPRINGALL STREET RTM COMPANY LTD"	08580222	LONDON	""	""	"SE15 2TY"	Active	98000
"1 ST CHOICE HGV TRAINING LTD"	08947327	LONDON	""	ENGLAND	"NW2 4QY"	Active	52290
"1 ST GEORGES AVENUE (FREEHOLD) LTD"	09189930	LONDON	""	""	"N7 0HB"	Active	98000
"1 ST KATHARINE'S WAY TENANT LIMITED"	09881566	LONDON	""	"UNITED KINGDOM"	"EC4A 1BR"	Active	68209
"1 ST PETER'S SQUARE TENANT LIMITED"	10927439	LONDON	""	"UNITED KINGDOM"	"EC4A 1BR"	Active	68209
"1 ST. CLOUD ROAD FREEHOLD LIMITED"	10246685	LONDON	""	ENGLAND	"SE27 2PJ"	Active	98000
"1 ST. STEPHEN'S CRESCENT MANAGEMENT LIMITED"	03886013	LONDON	""	""	"W2 6LG"	Active	98000
"1 ST. STEPHENS AVENUE MANAGEMENT LIMITED"	03657503	LONDON	""	""	"W12 8JB"	Active	98000
"1 STANSFIELD ROAD SW9 9RY LTD"	08792981	LONDON	""	""	"SW9 9RY"	Active	98000
"1 STANTON ROAD LIMITED"	07203806	LONDON	""	""	"SW20 8RL"	Active	98000
"1 STERNDALE ROAD (RESIDENTS ASSOCIATION) LIMITED"	02391317	LONDON	""	""	"W14 0HT"	Active	98000
"1 STONOR ROAD WEST KENSINGTON LIMITED"	08089667	LONDON	""	""	"W14 8RZ"	Active	68209
"1 STOP 4 TYRES LIMITED"	10260970	LONDON	""	ENGLAND	"E10 6RF"	Active	99999
"1 STOP BOUTIQUE LTD"	10478331	LONDON	LONDON	"UNITED KINGDOM"	"EC1V 2NX"	Active	47710
"1 STOP EXPRESS LIMITED"	08260190	LONDON	""	""	"SW16 4AH"	Active	56103
"1 STOP HOLIDAYS LTD"	08955688	LONDON	""	ENGLAND	"WC1N 3AX"	Active	79110
"1 SUNDERLAND TERRACE LIMITED"	03240248	LONDON	""	ENGLAND	"SW1Y 5JG"	Active	68201
"1 SUNNINGHILL AVENUE LIMITED"	08471226	LONDON	""	""	"W1U 6UE"	Active	68209
"1 SUPREME CLEAN LTD"	10559037	LONDON	""	"UNITED KINGDOM"	"SE6 3RP"	Active	81210
"1 T0 WEAR LIMITED"	07019382	LONDON	""	"UNITED KINGDOM"	"N14 6NR"	Active	47910
"1 TAKE SYSTEMS LIMITED"	08252384	LONDON	""	""	"W1B 3HH"	Active	62012
"1 TALBOT ROAD FREEHOLD MANAGEMENT COMPANY LIMITED"	06953587	LONDON	""	""	"W2 5JE"	Active	98000
"1 TARGET ENFORCEMENT LTD"	10384107	LONDON	""	ENGLAND	"W1T 5DB"	Active	82990
"1 TECH LTD"	04319391	LONDON	""	ENGLAND	"EC1M 6HA"	Active	62090
"1 THE PARK (HIGHGATE) LIMITED"	03347568	LONDON	""	""	"N6 4EU"	Active	98000
"1 THEOBALD'S COURT PARTNERCO LIMITED"	06927510	LONDON	""	""	"EC2V 7QA"	Active	68100
"1 THIRLMERE ROAD LIMITED"	08215867	LONDON	""	""	"SW16 1QW"	Active	98000
"1 THORNLAW ROAD MANAGEMENT COMPANY LTD"	06633218	LONDON	""	""	"SE27 0SH"	Active	55900
"1 TIERNEY ROAD MANAGEMENT COMPANY LIMITED"	07701697	LONDON	""	""	"SW2 4QL"	Active	98000
"1 TO 3 COFFEE LTD"	10064628	LONDON	""	ENGLAND	"N1 7GU"	Active	47110
"1 TO 36 TAYLOR CLOSE LTD"	09155514	LONDON	""	""	"N17 0UB"	Active	68209
"1 TO 5 BEDFORD VILLAS LTD"	08537195	LONDON	""	ENGLAND	"SW18 3EP"	Active	68320
"1 TONSLEY ROAD MANAGEMENT LIMITED"	07691776	LONDON	""	ENGLAND	"SW19 8BX"	Active	68100
"1 TOUCH CONSULTANCY LTD"	08986042	LONDON	""	ENGLAND	"SE2 0JB"	Active	62020
"1 TOUCH IT SOLUTIONS LTD"	08332646	LONDON	""	""	"E10 7NW"	Active	62030
"1 TRAINING INTERNATIONAL LTD"	10489121	LONDON	""	ENGLAND	"E1 8ER"	Active	85320
"1 TULSE HILL LIMITED"	10556123	LONDON	""	"UNITED KINGDOM"	"SW9 8PN"	Active	98000
"1 TURVILLE STREET MANAGEMENT COMPANY LIMITED"	08770033	LONDON	""	""	"E2 7HX"	Active	98000
"1 TWO 1 DIRECT LTD"	05957451	LONDON	""	""	"SE2 0SS"	Active	82190
"1 UNIQUE PERSON LIMITED"	10590371	LONDON	""	ENGLAND	"SW8 3PD"	Active	14190
"1 UP HIRE LTD"	07863450	LONDON	""	ENGLAND	"SE26 5AP"	Active	32990
"1 UP MANAGEMENT COMPANY LIMITED"	06364147	LONDON	""	""	"NW5 1UP"	Active	68209
"1 UPPER BROOK STREET (FREEHOLD) LTD"	10721611	LONDON	""	"UNITED KINGDOM"	"W1K 6PA"	Active	68209
"1 VARDENS ROAD LIMITED"	06165869	LONDON	""	""	"SW11 1RQ"	Active	98000
"1 VERMONT ROAD (FREEHOLD) LIMITED"	05744450	LONDON	""	""	"SE22 8DS"	Active	98000
"1 VERNON YARD LIMITED"	04701083	LONDON	""	"UNITED KINGDOM"	"EC1Y 2AB"	Active	41100
"1 VILLAS LIMITED"	09147866	LONDON	""	""	"W1J 8DJ"	Active	79909
"1 WALDECK ROAD LIMITED"	06694484	LONDON	""	""	"W13 8LY"	Active	98000
"1 WELLINGTON PLACE LIMITED"	02582558	LONDON	""	""	"WC1H 9BQ"	"Active - Proposal to Strike off"	47710
"1 WENDELL RD COMPANY LTD"	08256562	LONDON	""	""	"W5 1LT"	Active	68320
"1 WEST WARWICK PLACE LIMITED"	05520790	LONDON	""	""	"SW12 8EN"	Active	98000
"1 WESTMINSTER BRIDGE PLAZA MANAGEMENT COMPANY LIMITED"	05525825	LONDON	""	ENGLAND	"SE1 7GP"	Active	55100
"1 WICKHAM ROAD LIMITED"	09052354	LONDON	""	ENGLAND	"EC1V 1AW"	Active	96090
"1 WILLINGHAM TERRACE LTD"	10181043	LONDON	""	"UNITED KINGDOM"	"E8 4DG"	Active	98000
"1 WILTON CRESCENT FREEHOLD LIMITED"	07640677	LONDON	""	""	"W8 4DB"	Active	82990
"1 WIMBLEDON PARK ROAD MANAGEMENT LIMITED"	03886183	LONDON	""	""	"SW19 4DA"	Active	98000
"1 WIN LIMITED"	05955937	LONDON	""	""	"W1H 6EF"	Active	82990
"1 WINTERSTOKE ROAD RTM COMPANY LIMITED"	09903849	LONDON	""	ENGLAND	"SE6 4UG"	Active	98000
"1 WOLSELEY ROAD LIMITED"	06791112	LONDON	""	""	"N8 8RR"	Active	96090
"1 WOOLER STREET LIMITED"	10876095	LONDON	""	"UNITED KINGDOM"	"SE11 4UR"	Active	99999
"1 WOOLSTONE RD COLLECTIVE LTD"	05957503	LONDON	""	""	"SE22 0HW"	Active	99999
"1 WORLD GLOBAL NETWORK CORPORATION LTD"	08127187	LONDON	""	""	"N14 5BP"	Active	99999
"1 WTR FREEHOLD LIMITED"	09759604	LONDON	""	ENGLAND	"W2 6NG"	"Active - Proposal to Strike off"	98000
"1 X-TREME CLEAN LIMITED"	06125473	LONDON	""	""	"E10 6EH"	Active	81299
"1, 2 AND 4 MARCUS TERRACE RESIDENTS LTD"	08152595	LONDON	""	""	"SW18 2JW"	Active	68320
"1, 3, 5 & 7 EWART ROAD RESIDENTS ASSOCIATION LIMITED"	02116161	LONDON	""	""	"SE5 9HY"	Active	98100
"1,1A,3 AND 3A CHESTNUT GROVE EALING LIMITED"	07826983	LONDON	""	""	"W5 4JT"	Active	98000
"1-04 TIDE CAPITAL LIMITED"	10909603	LONDON	""	"UNITED KINGDOM"	"N2 9EB"	Active	70229
"1-1 PROPERTY LTD"	10388299	LONDON	""	"UNITED KINGDOM"	"E17 9PX"	Active	41100
"1-10 ABINGDON MANSIONS MANAGEMENT LIMITED"	01648377	LONDON	""	ENGLAND	"W6 9EU"	Active	98000
"1-10 SUMMER'S STREET MANAGEMENT LIMITED"	03692163	LONDON	""	""	"WC1B 4HP"	Active	74990
"1-12 BRONDESBURY PARK MANSIONS RTM COMPANY LIMITED"	08924729	LONDON	"GREATER LONDON"	""	"NW6 6PD"	Active	74990
"1-12 LINDEN COURT RTM COMPANY LIMITED"	09767191	LONDON	""	"UNITED KINGDOM"	"SE9 3TL"	Active	68209
"1-12 NORTHUMBERLAND COURT RTM COMPANY LIMITED"	10433127	LONDON	""	"UNITED KINGDOM"	"NW4 2EL"	Active	98000
"1-12 ROYAL COURT (FREEHOLD) LIMITED"	08451890	LONDON	""	""	"SE16 7TA"	Active	98000
"1-13 WATER LANE (ODD NUMBERS) (RTM) COMPANY LIMITED"	07663651	LONDON	""	ENGLAND	"SE8 5AD"	Active	98000
"1-14 DEWEY LANE MANAGEMENT LIMITED"	05892502	LONDON	""	""	"SW11 3TY"	Active	98000
"1-14 EVERGREEN RTM COMPANY LIMITED"	07692611	LONDON	""	""	"EC2V 8AE"	Active	98000
"1-16 ANTONY COURT RTM COMPANY LIMITED"	06984471	LONDON	""	""	"EC1V 7ER"	Active	98000
"1-16 STAMFORD HILL MANSIONS RTM COMPANY LIMITED"	08158240	LONDON	""	""	"N16 6TU"	Active	98000
"1-17 LYNDHURST COURT (CHURCHFIELDS) RTM CO LTD"	09227806	LONDON	""	""	"E18 2QH"	Active	98000
"1-17 SPECTRUM PLACE SE17 2GP (RTM) COMPANY LIMITED"	07947125	LONDON	""	ENGLAND	"SE8 5AD"	Active	74990
"1-17 ST AGNES CLOSE (HACKNEY) FREEHOLD COMPANY LIMITED"	07680110	LONDON	""	""	"E2 7AX"	Active	98000
"1-18 PENNETHORNE CLOSE FREEHOLD (LONDON E9) LIMITED"	07681317	LONDON	""	ENGLAND	"E8 4DG"	Active	98000
"1-19 GLOUCESTER COURT FREEHOLD LIMITED"	07380131	LONDON	""	""	"NW3 6LH"	Active	98000
"1-2 COURIERS LTD"	08212864	LONDON	""	""	"NW10 7LQ"	Active	53202
"1-2 HEPSCOTT ROAD LIMITED"	09416082	LONDON	""	"UNITED KINGDOM"	"E11 1HP"	Active	41100
"1-2 LINCOLN'S INN FIELDS"	06891347	LONDON	""	""	"SE5 0TW"	Active	41202
"1-2 RAVEY STREET LIMITED"	06610360	LONDON	""	""	"EC2A 4QP"	Active	98000
"1-2-1 ACCOUNTANTS (UK) LIMITED"	08269619	LONDON	""	""	"W2 3RX"	Active	69201
"1-2-1 DOULA & BREASTFEEDING SUPPORT LIMITED"	09904874	LONDON	""	"UNITED KINGDOM"	"WC2H 9JQ"	Active	96090
"1-2-1 PILATES LIMITED"	05859388	LONDON	""	""	"W1B 5TD"	Active	96040
"1-2-3 CLICK LTD"	10331890	LONDON	""	ENGLAND	"N1 7GU"	Active	46499
"1-2-3 QUEENSGATE FREEHOLD LIMITED"	07272082	LONDON	""	""	"W8 5EH"	Active	98000
"1-2-3 WORKING TOGETHER LIMITED"	10654959	LONDON	""	ENGLAND	"W1B 3HH"	Active	82990
"1-2-C MASTER CHIMNEY SWEEP LIMITED"	06516894	LONDON	""	""	"N11 2DN"	Active	81223
"1-20 BRITTEN CLOSE RTM COMPANY LIMITED"	10168144	LONDON	""	""	"N3 2UU"	Active	98000
"1-20 CLIFFORD CLOSE RTM COMPANY LTD"	09376809	LONDON	""	""	"EC2V 8AE"	Active	98000
"1-2CLEAN4U LIMITED"	06125487	LONDON	""	""	"E10 6EH"	Active	81299
"1-3 ATHELSTAN ROAD RTM COMPANY LIMITED"	07805252	LONDON	""	""	"SW18 3AQ"	Active	98000
"1-3 GLENGARIFF MANSIONS (FREEHOLD) LIMITED"	05783410	LONDON	""	""	"SW9 0DT"	Active	98000
"1-3 GROVEWAY LIMITED"	09449322	LONDON	ENGLAND	ENGLAND	"SW9 0AH"	Active	98000
"1-3 MORPETH TERRACE LIMITED"	02634198	LONDON	""	""	"SW1V 2NE"	Active	98000
"1-3 UPPER JAMES ST LIMITED"	10431073	LONDON	""	""	"W1U 7EU"	Active	68100
"1-30 BRITTEN COURT RTM COMPANY LIMITED"	07832361	LONDON	""	ENGLAND	"E15 2RS"	Active	98000
"1-4 MODEL FARM CLOSE LIMITED"	03955506	LONDON	""	""	"SE9 4DR"	Active	74990
"1-4 NEWTON AVENUE LIMITED"	05255835	LONDON	""	""	"N10 2NB"	Active	98000
"1-4 WILLIAM MEWS N1 5AU LIMITED"	07217299	LONDON	""	""	"N1 5AU"	Active	68209
"1-48 CHANDOS WAY RTM COMPANY LIMITED"	10168090	LONDON	""	""	"N3 2UU"	Active	98000
"1-5 (EVEN) HIGH STREET PENGE RTM COMPANY LIMITED"	06786367	LONDON	""	""	"SE20 7HJ"	Active	98000
"1-5 LOWNDES SQUARE MANAGEMENT COMPANY LIMITED"	01842645	LONDON	""	"UNITED KINGDOM"	"EC3P 3DQ"	Active	98000
"1-6 ALWYNE MANSIONS LIMITED"	06460860	LONDON	""	ENGLAND	"SW19 7AD"	Active	98000
"1-6 ASHFORD CLOSE LIMITED"	07922341	LONDON	""	""	"E17 8DL"	Active	98000
"1-6 BAVENT FREEHOLD LTD"	09927429	LONDON	""	"UNITED KINGDOM"	"SE5 9RY"	Active	98000
"1-6 CHAPMANS END MANAGEMENT COMPANY LIMITED"	10341019	LONDON	""	"UNITED KINGDOM"	"W1J 6BY"	Active	68320
"1-6 CHESTER COURT LIMITED"	06000224	LONDON	""	""	"SW1X 7AH"	Active	98000
"1-6 CRESCENT MEWS LIMITED"	07772555	LONDON	""	ENGLAND	"W1F 7LD"	Active	68209
"1-6 MANVILLE GARDENS RESIDENTS COMPANY LIMITED"	02814588	LONDON	""	""	"SW17 8JP"	Active	98000
"1-6 SHROTON STREET (NW1) LIMITED"	06792721	LONDON	""	""	"NW1 6UG"	Active	98000
"1-6 ST. OLAF'S ROAD LIMITED"	03918977	LONDON	""	ENGLAND	"W6 0RR"	Active	98000
"1-7 STATION PARADE MANAGEMENT LIMITED"	10070579	LONDON	""	"UNITED KINGDOM"	"SW5 9AN"	Active	68320
"1-7 WAYSIDE RTM COMPANY LIMITED"	06397945	LONDON	""	""	"SE1 2YJ"	Active	98000
"1-8 CARLYLE HOUSE MANAGEMENT LIMITED"	06458500	LONDON	""	ENGLAND	"SW10 9HY"	Active	98000
"1-8 CRANE COURT MANAGEMENT COMPANY LIMITED"	03875651	LONDON	""	""	"SW14 8RZ"	Active	98000
"1-8 NICHOLLS MEWS MANAGEMENT LIMITED"	09132320	LONDON	""	"UNITED KINGDOM"	"SW16 2BW"	Active	68209
"1-8 SOUTHWOOD MANSIONS MANAGEMENT COMPANY LIMITED"	02318406	LONDON	""	""	"N6 5SZ"	Active	98000
"1-8 TUDOR MANSIONS (GONDAR GARDENS) MANAGEMENT LIMITED"	05511243	LONDON	""	""	"NW6 1EY"	Active	98000
"1-800-DINOSAUR COMMUNICATIONS LIMITED"	08541025	LONDON	""	"UNITED KINGDOM"	"WC1V 7JZ"	Active	90020
"1-800-DINOSAUR LIMITED"	07585944	LONDON	""	"UNITED KINGDOM"	"WC1V 7JZ"	Active	70229
"1-9 BRUNSWICK QUAY MANAGEMENT LIMITED"	02073175	LONDON	""	""	"SW6 4NF"	Active	98000
"1-9 WESTERN COURT RTM COMPANY LIMITED"	06877539	LONDON	""	""	"NW1 9QS"	Active	98000
"1-APART LTD"	07151246	LONDON	""	ENGLAND	"SW19 1NZ"	Active	63990
"1-ONE SPECIAL SERVICE LIMITED"	09149000	LONDON	""	""	"EN3 5XU"	Active	86102
"1-SHOE-3 LTD"	10426973	LONDON	""	ENGLAND	"WC2H 9JQ"	Active	47721
"1.618 DIGITAL LTD"	09850046	LONDON	""	ENGLAND	"E8 3DQ"	Active	90030
"1.FOR.U SERVICES LTD"	09817068	LONDON	""	ENGLAND	"W1S 1BZ"	Active	86900
"1/10 CAMBRIDGE MANSIONS RESIDENTS ASSOCIATION LIMITED"	02666912	LONDON	""	ENGLAND	"SW16 6NU"	Active	98000
"1/2 VICARAGE GATE RESIDENTS COMPANY LIMITED"	02458674	LONDON	""	""	"W8 5EH"	Active	98100
"1/3 & SESAME BLOSSOM LTD"	10648094	LONDON	""	""	"E20 1BD"	Active	62090
"1/3 GORDON ROAD RTM COMPANY LIMITED"	05708177	LONDON	""	""	"SW18 3AQ"	Active	98000
"1/3 STANLEY GARDENS FREEHOLD AND MANAGEMENT COMPANY LIMITED"	03387299	LONDON	""	"UNITED KINGDOM"	"W2 3AH"	Active	98000
"1/6 PARK VIEW MANAGEMENT COMPANY LIMITED"	03079195	LONDON	""	""	"SW6 3JD"	Active	98000
"1/OVER LIMITED"	10297131	LONDON	""	"UNITED KINGDOM"	"E8 2HE"	Active	62011
"10 & 11 EAGLE COURT LIMITED"	08675187	LONDON	""	ENGLAND	"SW10 9PT"	Active	68209
"10 & 12 CADOGAN SQUARE MANAGEMENT LIMITED"	06708772	LONDON	""	""	"W1D 3BX"	Active	98000
"10 - 11 CHESTER STREET (FREEHOLD) LIMITED"	07670852	LONDON	""	""	"W1U 2AY"	Active	68209
"10 8 PRODUCTIONS LIMITED"	07427761	LONDON	""	""	"N13 4PJ"	Active	74209
"10 ALFRED ROAD LIMITED"	04432831	LONDON	""	""	"W3 6LH"	Active	98000
"10 AND 12 ST STEPHEN'S ROAD MANAGEMENT COMPANY LIMITED"	04984686	LONDON	""	""	"W1T 6LQ"	Active	98000
"10 ANSON ROAD (FREEHOLD) LIMITED"	10189859	LONDON	""	""	"W1H 6NT"	Active	98000
"10 ARKWRIGHT ROAD MANAGEMENT LIMITED"	03426516	LONDON	""	""	"NW3 6AE"	Active	98000
"10 ARTERBERRY ROAD RTM COMPANY LIMITED"	09612228	LONDON	""	ENGLAND	"SW6 4NF"	Active	98000
"10 AYLESTONE MANAGEMENT LIMITED"	05897552	LONDON	""	""	"NW10 3NN"	Active	98000
"10 BACK HILL TENANT LIMITED"	09881647	LONDON	""	"UNITED KINGDOM"	"EC4A 1BR"	Active	68209
"10 BALDWIN TERRACE RTM COMPANY LTD"	10592475	LONDON	""	ENGLAND	"E8 4DG"	Active	98000
"10 BALTIC STREET MANAGEMENT LIMITED"	03906102	LONDON	""	ENGLAND	"E8 1NT"	Active	98000
"10 BELLS LIMITED"	09055630	LONDON	""	""	"WC2N 5NG"	Active	68100
"10 BELMONT GROVE FREEHOLD LIMITED"	05300001	LONDON	""	""	"SE13 5DW"	Active	81100
"10 BELSIZE CRESCENT LIMITED"	09221341	LONDON	""	""	"NW3 5QU"	Active	98000
"10 BERKELEY STREET LIMITED"	04609732	LONDON	""	ENGLAND	"HA0 1HD"	Active	74909
"10 BERKELEY STREET MANAGEMENT LIMITED"	03888657	LONDON	""	ENGLAND	"HA0 1HD"	Active	74909
"10 BET LIMITED"	04636933	LONDON	""	"UNITED KINGDOM"	"SE1 9SG"	Active	92000
"10 BLENHEIM LTD"	08738888	LONDON	""	ENGLAND	"W1J 0LP"	Active	96090
"10 BOURDON STREET LIMITED"	04792831	LONDON	""	ENGLAND	"W1K 3JB"	Active	98000
"10 BRACKNELL GARDENS MANAGEMENT LIMITED"	07535815	LONDON	""	""	"NW3 7EB"	Active	68209
"10 BROCK STREET LIMITED"	07401699	LONDON	""	""	"W1H 7LX"	Active	41100
"10 CAMBRIDGE GATE RTM COMPANY LTD"	09642390	LONDON	""	""	"EC3V 0EH"	Active	98000
"10 CARMALT GARDENS RESIDENTS COMPANY LIMITED"	02713679	LONDON	""	""	"SW15 5AW"	Active	98000
"10 CASHMERE HOUSE LTD"	09887005	LONDON	""	ENGLAND	"WC2N 4JS"	Active	68209
"10 CASTELLAIN ROAD LIMITED"	01736198	LONDON	""	""	"W9 1EZ"	Active	98000
"10 CASTLENAU MANAGEMENT LIMITED"	01688205	LONDON	""	""	"SW13 9RU"	Active	98000
"10 CG LIMITED"	09242250	LONDON	""	""	"WC1X 8TA"	Active	99999
"10 CHARTFIELD AVENUE LIMITED"	04315653	LONDON	""	""	"SW14 8AH"	Active	98000
"10 CHAUCER ROAD MANAGEMENT COMPANY LIMITED"	03442373	LONDON	""	""	"SE24 0NU"	Active	98000
"10 CHRISTCHURCH ROAD N8 LIMITED"	06107379	LONDON	""	""	"N14 7EL"	Active	98000
"10 CLANRICARDE GARDENS LIMITED"	03935367	LONDON	""	""	"W8 5EH"	Active	98000
"10 CLARENCE ROAD LTD"	10773918	LONDON	""	ENGLAND	"W1U 6RT"	Active	41100
"10 CLAREVILLE GROVE LIMITED"	05378304	LONDON	""	""	"W14 0QH"	Active	98000
"10 CLICKS TOURING LTD"	08461896	LONDON	""	""	"SW12 0JQ"	Active	90020
"10 COOMBE ROAD MANAGEMENT COMPANY LIMITED"	03541901	LONDON	""	""	"W4 2HR"	Active	98000
"10 CRANWICH ROAD LIMITED"	04816687	LONDON	"GREATER LONDON"	""	"N16 5JX"	Active	98000
"10 CRICKET FIELD ROAD LIMITED"	09735467	LONDON	""	"UNITED KINGDOM"	"EC1N 8LE"	Active	82990
"10 CROSSFIELD ROAD LIMITED"	05656357	LONDON	""	""	"NW3 4NS"	Active	98000
"10 DAGNAN ROAD FREEHOLD LIMITED"	08855510	LONDON	""	""	"SW12 9LQ"	Active	98000
"10 DALEHAM GARDENS LIMITED"	05824344	LONDON	""	ENGLAND	"NW3 5DA"	Active	98000
"10 DAYS PROFIT LTD"	10733106	LONDON	""	"UNITED KINGDOM"	"E6 5NX"	Active	64910
"10 DENNINGTON PARK ROAD LIMITED"	09024429	LONDON	""	""	"NW6 1BA"	Active	55900
"10 DEVONSHIRE PLACE W1 LIMITED"	04514053	LONDON	""	""	"W1G 6HS"	Active	98000
"10 DIGITAL LADIES LIMITED"	10354132	LONDON	""	"UNITED KINGDOM"	"N16 0EH"	Active	62090
"10 DIGITAL MEDIA LIMITED"	08675336	LONDON	""	ENGLAND	"N1 7GU"	Active	63990
"10 DOT 1 LIMITED"	05913406	LONDON	""	ENGLAND	"W10 5QZ"	Active	62020
"10 DOVER ROAD LTD"	07889719	LONDON	ENGLAND	""	"N3 1LF"	Active	68100
"10 DUKES AVENUE LTD"	09196038	LONDON	""	""	"N11 2PE"	Active	68209
"10 DURHAM TERRACE FREEHOLD LIMITED"	09323304	LONDON	""	""	"W2 5PB"	Active	98000
"10 DVG LIMITED"	10455268	LONDON	""	"UNITED KINGDOM"	"W1J 5NE"	Active	98000
"10 DYNE ROAD RTM COMPANY LIMITED"	10256388	LONDON	""	ENGLAND	"NW6 7XE"	Active	81100
"10 EARDLEY CRESCENT LIMITED"	07405714	LONDON	""	ENGLAND	"W14 0QH"	Active	98000
"10 EATON GATE MANAGEMENT LIMITED"	04208989	LONDON	""	ENGLAND	"W1S 1DX"	Active	98000
"10 ELVASTON PLACE LIMITED"	04446407	LONDON	""	ENGLAND	"SW7 5QG"	Active	98000
"10 EMBANKMENT GARDENS LIMITED"	03671656	LONDON	""	""	"SW3 4LJ"	Active	98000
"10 ENGLAND'S LANE FREEHOLD LIMITED"	07128469	LONDON	""	""	"NW3 4TG"	Active	81229
"10 ENNISMORE GARDENS FREEHOLD LIMITED"	10894273	LONDON	""	"UNITED KINGDOM"	"W4 2EF"	Active	98000
"10 ENNISMORE GARDENS MANAGEMENT LIMITED"	02884431	LONDON	""	ENGLAND	"W4 2EF"	Active	68320
"10 EVELYN GARDENS LIMITED"	03143247	LONDON	""	ENGLAND	"SW10 9HY"	Active	98000
"10 FARNAN ROAD STREATHAM LIMITED"	04892404	LONDON	""	""	"SW16 2JX"	Active	98000
"10 FINBOROUGH ROAD LIMITED"	07705970	LONDON	""	""	"W14 0QH"	Active	98000
"10 FLEET PLACE LIMITED"	07867931	LONDON	""	""	"EC4M 7RB"	Active	62020
"10 FOX LANE RTM COMPANY LTD"	09016236	LONDON	"GREATER LONDON"	""	"EC2V 8AE"	Active	98000
"10 GILBERT PLACE RTM COMPANY LIMITED"	06410335	LONDON	""	""	"WC1A 2JD"	Active	98000
"10 GLEDHOW GARDENS LIMITED"	02128492	LONDON	""	"UNITED KINGDOM"	"EC4V 4BE"	Active	98000
"10 GOLDERS GREEN CRESCENT LIMITED"	09400029	LONDON	ENGLAND	""	"WC2B 6SR"	Active	68209
"10 GOWAN ROAD LONDON LIMITED"	07379787	LONDON	""	""	"NW2 4LT"	Active	68209
"10 GREENAWAY GARDENS LTD"	04086570	LONDON	"GTR LONDON"	""	"NW3 7DJ"	Active	98000
"10 GRENVILLE PLACE LIMITED"	03958514	LONDON	""	""	"SW7 4RP"	Active	98000
"10 GRESWELL STREET MANAGEMENT LTD"	08217747	LONDON	""	""	"SW6 6PP"	Active	68320
"10 GRIFFITHS ROAD FREEHOLD LIMITED"	07003594	LONDON	""	""	"SW19 1SP"	Active	98000
"10 GROUP HOLDCO LIMITED"	09278348	LONDON	""	""	"EC1V 9EE"	Active	82990
"10 GROUP LIMITED"	06998865	LONDON	""	""	"EC1V 9EE"	Active	82990
"10 GROVELANDS ROAD (FREEHOLD) LIMITED"	09132735	LONDON	""	""	"N13 4RH"	Active	98000
"10 GUNTER GROVE FREEHOLD LIMITED"	08272690	LONDON	""	""	"SW10 0UJ"	Active	68209
"10 HALESWORTH ROAD LIMITED"	04244376	LONDON	""	""	"SE13 7TN"	Active	98000
"10 HAVEN GREEN (MANAGEMENT) LIMITED"	05800596	LONDON	UK	""	"W5 1JJ"	Active	68209
"10 HERGA ROAD LTD"	08859903	LONDON	""	""	"NW9 9HN"	Active	68320
"10 HG MANAGEMENT LIMITED"	01877167	LONDON	""	""	"N6 5ST"	Active	98000
"10 HILLMARTON ROAD MANAGEMENT LIMITED"	03920685	LONDON	""	""	"N7 9JW"	Active	68209
"10 HILLTOP ROAD LIMITED"	03534230	LONDON	""	""	"NW1 9QS"	Active	68320
"10 HOPGOOD STREET RESIDENTS ASSOCIATION LIMITED"	05901052	LONDON	""	""	"W12 7JU"	Active	98000
"10 HP LIMITED"	04579391	LONDON	""	""	"W1K 4QJ"	Active	97000
"10 HUNGERFORD ROAD RTM LIMITED"	06019031	LONDON	""	""	"N7 9LX"	Active	68320
"10 IVERSON ROAD (FREEHOLD) LIMITED"	10519812	LONDON	""	"UNITED KINGDOM"	"NW6 2HE"	Active	98000
"10 IVERSON ROAD MANAGEMENT LIMITED"	04669514	LONDON	""	""	"NW6 2HE"	Active	74990
"10 K1NGSFIELD RTM COMPANY LIMITED"	10260136	LONDON	""	"UNITED KINGDOM"	"SE13 5PT"	Active	98000
"10 KIDBROOKE GROVE RESIDENTS COMPANY LIMITED"	06031623	LONDON	""	""	"SE3 9LA"	Active	98000
"10 KILDARE GARDENS (FREEHOLD) LIMITED"	09769378	LONDON	""	"UNITED KINGDOM"	"W2 5LU"	Active	68320
"10 KINGSWOOD ROAD LIMITED"	03846546	LONDON	""	""	"SE19 2HS"	Active	98000
"10 KIRKSTALL ROAD (MANAGEMENT) LIMITED"	02945050	LONDON	""	""	"SW2 4HF"	Active	98000
"10 LADBROKE GARDENS LONDON W11 RESIDENTS ASSOCIATION LIMITED"	02858237	LONDON	""	""	"SW6 4NF"	Active	98000
"10 LADBROKE SQUARE FREEHOLD LIMITED"	09163375	LONDON	""	""	"W11 3LX"	Active	74990
"10 LANCASTER ROAD LIMITED"	08901285	LONDON	""	""	"N4 4PP"	Active	98000
"10 LANCELOT PLACE MANAGEMENT COMPANY LIMITED"	05992497	LONDON	""	""	"SW6 4HS"	Active	98000
"10 LEAKE STREET LTD"	08273787	LONDON	""	"UNITED KINGDOM"	"EC4R 0DP"	Active	82990
"10 LEAVES UK LTD"	10813419	LONDON	""	ENGLAND	"E1 8DE"	Active	82990
"10 LEE TERRACE LIMITED"	03899264	LONDON	""	""	"SE3 9TZ"	Active	98000
"10 LEISURE LIMITED"	08925008	LONDON	""	""	"NW1 0AG"	Active	70229
"10 LENNOX GARDENS LIMITED"	05890706	LONDON	""	""	"SW5 0RA"	Active	98000
"10 LINDFIELD GARDENS MANAGEMENT LIMITED"	03224147	LONDON	""	""	"NW3 6PU"	Active	96090
"10 LINDORE ROAD LIMITED"	09310976	LONDON	""	""	"SW11 1HJ"	Active	99999
"10 LINES LTD"	09665833	LONDON	"- SELECT -"	"UNITED KINGDOM"	"NW6 2JR"	Active	58190
"10 LONGRIDGE FREEHOLD COMPANY LIMITED"	08424562	LONDON	""	""	"E11 4BH"	Active	68100
"10 LONGRIDGE ROAD MANAGEMENT COMPANY LIMITED"	01816111	LONDON	""	ENGLAND	"SW5 0QT"	Active	98000
"10 LYNDHURST GARDENS FREEHOLD LIMITED"	03389634	LONDON	""	""	"NW3 6TP"	Active	98000
"10 MADELEY ROAD RESIDENTS COMPANY LIMITED"	03450412	LONDON	""	""	"W5 2LH"	Active	98000
"10 MANCHURIA ROAD, LONDON SW11 6AE LIMITED"	05161632	LONDON	""	""	"SW11 6AE"	Active	98000
"10 MANWOOD ROAD LTD"	10529397	LONDON	""	"UNITED KINGDOM"	"SE4 1AD"	Active	98000
"10 MARYLANDS ROAD LTD"	10782038	LONDON	""	"UNITED KINGDOM"	"W4 1JT"	Active	41100
"10 MAZENOD AVENUE FREEHOLD LIMITED"	05851633	LONDON	""	""	"NW6 4LR"	Active	74990
"10 MILLFIELD LANE SERVICE COMPANY LIMITED (THE)"	01049303	LONDON	""	""	"N12 8LY"	Active	98100
"10 MILTON AVENUE LIMITED"	06655399	LONDON	""	""	"N6 5QE"	Active	98000
"10 MINUTE VENTURES LIMITED"	09021954	LONDON	""	ENGLAND	"EC3M 5JD"	Active	62020
"10 MINUTES WITH LIMITED"	08451881	LONDON	""	""	"EC1N 2HA"	"Active - Proposal to Strike off"	78109
"10 MORETON PLACE LTD"	05990953	LONDON	""	""	"SE10 0LA"	Active	81100
"10 MORETON TERRACE (FREEHOLD) LIMITED"	08641931	LONDON	""	""	"SW1V 2NX"	Active	98000
"10 MOTIVES LIMITED"	07934188	LONDON	""	ENGLAND	"WC2R 3LA"	Active	32990
"10 MOUNTGROVE ROAD LIMITED"	08499987	LONDON	""	""	"N5 2LS"	Active	98000
"10 MOWBRAY ROAD RESIDENTS MANAGEMENT COMPANY LIMITED"	02067820	LONDON	""	""	"SE19 2RN"	Active	98000